{"type":"FeatureCollection","license":"geoBoundaries gbOpen ETH ADM1 — CC BY 4.0","source":"https://www.geoboundaries.org/","features":[{"type":"Feature","properties":{"key":"Addis Ababa","slug":"addis-ababa","name":"Addis Ababa"},"geometry":{"type":"Polygon","coordinates":[[[38.813,8.841],[38.818,8.84],[38.825,8.842],[38.825,8.854],[38.83,8.87],[38.828,8.875],[38.827,8.881],[38.834,8.884],[38.842,8.881],[38.848,8.881],[38.859,8.885],[38.865,8.884],[38.87,8.874],[38.871,8.882],[38.878,8.897],[38.874,8.906],[38.88,8.919],[38.862,8.933],[38.856,8.939],[38.862,8.944],[38.892,8.935],[38.898,8.938],[38.902,8.947],[38.897,8.956],[38.904,8.963],[38.907,8.978],[38.905,8.993],[38.907,8.999],[38.906,9.011],[38.902,9.021],[38.894,9.038],[38.884,9.053],[38.883,9.07],[38.877,9.083],[38.869,9.086],[38.858,9.085],[38.85,9.079],[38.843,9.08],[38.826,9.077],[38.806,9.083],[38.801,9.08],[38.792,9.079],[38.779,9.095],[38.772,9.099],[38.766,9.099],[38.752,9.092],[38.739,9.088],[38.728,9.087],[38.717,9.089],[38.708,9.083],[38.702,9.082],[38.686,9.074],[38.685,9.067],[38.684,9.051],[38.673,9.04],[38.673,9.034],[38.668,9.027],[38.668,9.011],[38.653,9.011],[38.652,9.004],[38.659,8.996],[38.66,8.986],[38.655,8.978],[38.64,8.975],[38.644,8.967],[38.677,8.959],[38.682,8.951],[38.681,8.942],[38.689,8.941],[38.695,8.943],[38.698,8.934],[38.703,8.927],[38.709,8.922],[38.72,8.921],[38.732,8.906],[38.737,8.902],[38.744,8.904],[38.745,8.893],[38.744,8.881],[38.748,8.878],[38.746,8.871],[38.746,8.864],[38.755,8.86],[38.757,8.854],[38.762,8.855],[38.774,8.859],[38.778,8.853],[38.779,8.843],[38.781,8.837],[38.793,8.837],[38.798,8.835],[38.813,8.841]]]}},{"type":"Feature","properties":{"key":"Afar","slug":"afar","name":"Afar"},"geometry":{"type":"Polygon","coordinates":[[[41.761,10.983],[41.765,11.086],[41.77,11.117],[41.778,11.286],[41.774,11.323],[41.777,11.43],[41.776,11.54],[41.789,11.584],[41.798,11.647],[41.804,11.668],[41.827,11.708],[41.835,11.726],[41.854,11.743],[41.867,11.764],[41.92,11.803],[41.943,11.825],[41.965,11.857],[41.981,11.871],[41.998,11.896],[42.042,11.98],[42.064,12.019],[42.079,12.041],[42.091,12.065],[42.113,12.095],[42.125,12.108],[42.181,12.177],[42.2,12.208],[42.212,12.214],[42.23,12.236],[42.245,12.261],[42.267,12.29],[42.282,12.317],[42.296,12.346],[42.312,12.37],[42.32,12.388],[42.338,12.404],[42.356,12.446],[42.342,12.465],[42.336,12.48],[42.311,12.522],[42.281,12.557],[42.243,12.616],[42.235,12.624],[42.228,12.634],[42.22,12.641],[42.197,12.673],[42.137,12.747],[42.114,12.765],[42.097,12.784],[42.096,12.794],[42.051,12.844],[42.044,12.856],[42.011,12.921],[41.999,12.936],[41.973,12.984],[41.931,13.03],[41.88,13.09],[41.787,13.176],[41.738,13.232],[41.613,13.348],[41.579,13.386],[41.483,13.481],[41.441,13.52],[41.379,13.571],[41.351,13.598],[41.315,13.631],[41.292,13.663],[41.251,13.713],[41.217,13.748],[41.192,13.768],[41.17,13.79],[41.078,13.879],[40.838,14.085],[40.651,14.23],[40.546,14.302],[40.445,14.364],[40.386,14.39],[40.332,14.425],[40.269,14.454],[40.223,14.479],[40.141,14.499],[40.09,14.491],[40.076,14.495],[40.056,14.487],[40.011,14.44],[39.985,14.433],[39.985,14.424],[39.98,14.41],[39.983,14.394],[39.989,14.389],[39.992,14.383],[39.981,14.372],[39.973,14.371],[39.951,14.361],[39.939,14.362],[39.917,14.371],[39.909,14.366],[39.902,14.367],[39.896,14.371],[39.891,14.37],[39.885,14.371],[39.879,14.369],[39.854,14.368],[39.856,14.374],[39.848,14.376],[39.839,14.381],[39.828,14.383],[39.821,14.383],[39.802,14.388],[39.797,14.387],[39.789,14.379],[39.773,14.374],[39.776,14.352],[39.781,14.336],[39.78,14.331],[39.772,14.32],[39.764,14.319],[39.751,14.313],[39.746,14.309],[39.734,14.307],[39.727,14.304],[39.728,14.295],[39.735,14.289],[39.743,14.282],[39.758,14.278],[39.757,14.251],[39.758,14.24],[39.754,14.238],[39.743,14.236],[39.707,14.243],[39.695,14.242],[39.689,14.232],[39.687,14.217],[39.677,14.208],[39.673,14.201],[39.665,14.198],[39.659,14.199],[39.657,14.193],[39.651,14.189],[39.659,14.183],[39.674,14.178],[39.683,14.165],[39.716,14.157],[39.722,14.158],[39.75,14.152],[39.768,14.141],[39.776,14.14],[39.792,14.143],[39.799,14.143],[39.81,14.152],[39.828,14.156],[39.839,14.155],[39.839,14.127],[39.844,14.11],[39.843,14.098],[39.844,14.09],[39.849,14.079],[39.845,14.061],[39.845,14.051],[39.856,14.032],[39.862,14.029],[39.867,14.022],[39.883,14.017],[39.887,14.013],[39.869,13.993],[39.87,13.984],[39.859,13.974],[39.86,13.966],[39.837,13.976],[39.83,13.975],[39.817,13.969],[39.814,13.961],[39.803,13.946],[39.813,13.945],[39.819,13.943],[39.829,13.932],[39.826,13.927],[39.827,13.922],[39.834,13.919],[39.834,13.908],[39.83,13.9],[39.829,13.889],[39.83,13.869],[39.839,13.865],[39.837,13.855],[39.842,13.848],[39.843,13.839],[39.835,13.822],[39.837,13.812],[39.842,13.804],[39.849,13.801],[39.853,13.796],[39.855,13.787],[39.854,13.767],[39.865,13.756],[39.875,13.75],[39.885,13.749],[39.877,13.739],[39.875,13.723],[39.875,13.711],[39.879,13.707],[39.879,13.689],[39.877,13.681],[39.868,13.659],[39.869,13.644],[39.867,13.628],[39.87,13.621],[39.87,13.61],[39.866,13.603],[39.866,13.591],[39.868,13.584],[39.866,13.564],[39.864,13.559],[39.865,13.549],[39.854,13.555],[39.844,13.557],[39.837,13.556],[39.817,13.558],[39.805,13.554],[39.795,13.556],[39.784,13.564],[39.764,13.572],[39.745,13.571],[39.74,13.564],[39.741,13.548],[39.735,13.529],[39.73,13.525],[39.729,13.517],[39.724,13.51],[39.72,13.476],[39.727,13.442],[39.729,13.423],[39.735,13.404],[39.739,13.4],[39.744,13.39],[39.742,13.383],[39.747,13.375],[39.73,13.379],[39.733,13.374],[39.741,13.364],[39.743,13.358],[39.743,13.352],[39.74,13.334],[39.737,13.328],[39.739,13.322],[39.736,13.315],[39.729,13.309],[39.721,13.295],[39.726,13.289],[39.731,13.287],[39.737,13.287],[39.743,13.283],[39.76,13.28],[39.763,13.284],[39.768,13.286],[39.778,13.276],[39.787,13.263],[39.786,13.253],[39.788,13.246],[39.8,13.228],[39.801,13.22],[39.809,13.218],[39.808,13.203],[39.805,13.19],[39.81,13.177],[39.813,13.156],[39.817,13.147],[39.825,13.133],[39.832,13.113],[39.834,13.089],[39.836,13.084],[39.849,13.053],[39.859,13.037],[39.864,13.02],[39.861,13.004],[39.863,12.995],[39.861,12.97],[39.863,12.963],[39.874,12.943],[39.887,12.932],[39.899,12.927],[39.905,12.922],[39.907,12.915],[39.917,12.905],[39.926,12.894],[39.93,12.882],[39.93,12.875],[39.942,12.862],[39.953,12.838],[39.966,12.823],[39.97,12.815],[39.973,12.798],[39.979,12.793],[39.964,12.783],[39.944,12.772],[39.928,12.768],[39.92,12.768],[39.9,12.763],[39.89,12.756],[39.871,12.735],[39.868,12.724],[39.84,12.714],[39.827,12.694],[39.821,12.66],[39.824,12.646],[39.833,12.635],[39.825,12.623],[39.82,12.619],[39.81,12.604],[39.808,12.597],[39.816,12.582],[39.828,12.573],[39.827,12.562],[39.834,12.551],[39.841,12.547],[39.853,12.548],[39.864,12.532],[39.865,12.524],[39.863,12.518],[39.864,12.507],[39.869,12.495],[39.882,12.485],[39.867,12.473],[39.872,12.47],[39.883,12.468],[39.883,12.458],[39.864,12.464],[39.848,12.45],[39.834,12.434],[39.822,12.416],[39.816,12.408],[39.822,12.396],[39.821,12.391],[39.824,12.385],[39.826,12.373],[39.83,12.366],[39.832,12.358],[39.818,12.343],[39.818,12.325],[39.826,12.318],[39.825,12.292],[39.828,12.241],[39.808,12.24],[39.804,12.23],[39.804,12.212],[39.801,12.196],[39.808,12.171],[39.814,12.157],[39.82,12.124],[39.829,12.101],[39.863,12.089],[39.861,12.084],[39.844,12.066],[39.842,12.054],[39.855,12.03],[39.862,12.013],[39.868,11.996],[39.871,11.99],[39.877,11.975],[39.888,11.907],[39.879,11.883],[39.879,11.859],[39.874,11.799],[39.876,11.78],[39.88,11.768],[39.886,11.763],[39.903,11.737],[39.912,11.719],[39.925,11.702],[39.951,11.683],[39.971,11.665],[39.995,11.682],[40.016,11.646],[39.998,11.613],[39.993,11.598],[39.994,11.585],[40.007,11.559],[40.025,11.532],[40.056,11.489],[40.062,11.475],[40.068,11.444],[40.067,11.43],[40.071,11.374],[40.068,11.361],[40.066,11.339],[40.072,11.326],[40.08,11.323],[40.103,11.318],[40.124,11.297],[40.146,11.256],[40.174,11.241],[40.213,11.11],[40.195,11.097],[40.196,11.069],[40.194,11.049],[40.188,11.026],[40.17,11.002],[40.145,10.953],[40.125,10.939],[40.134,10.916],[40.15,10.897],[40.181,10.898],[40.179,10.885],[40.177,10.879],[40.171,10.874],[40.168,10.848],[40.169,10.843],[40.168,10.835],[40.165,10.829],[40.168,10.806],[40.141,10.783],[40.134,10.78],[40.123,10.769],[40.109,10.765],[40.103,10.756],[40.103,10.741],[40.11,10.725],[40.129,10.618],[40.152,10.471],[40.154,10.44],[40.162,10.436],[40.165,10.413],[40.164,10.376],[40.16,10.357],[40.161,10.302],[40.158,10.286],[40.148,10.278],[40.156,10.258],[40.151,10.234],[40.13,10.174],[40.138,10.146],[40.159,10.091],[40.133,10.072],[40.108,10.072],[40.07,10.08],[40.025,10.075],[39.994,10.078],[39.99,10.089],[39.981,10.089],[39.97,10.086],[39.949,10.085],[39.928,10.091],[39.938,10.063],[39.944,10.06],[39.942,10.044],[39.924,10.012],[39.948,9.994],[39.993,9.994],[40.011,9.992],[40.033,9.995],[40.044,9.992],[40.06,9.978],[40.067,9.967],[40.068,9.961],[40.081,9.949],[40.09,9.936],[40.079,9.906],[40.07,9.906],[40.064,9.903],[40.059,9.865],[40.072,9.858],[40.054,9.843],[40.036,9.844],[40.029,9.831],[40.018,9.821],[40.012,9.82],[40.005,9.796],[40.009,9.79],[40.009,9.783],[39.994,9.765],[39.992,9.758],[40.003,9.749],[40.007,9.742],[40.015,9.739],[40.01,9.734],[39.974,9.73],[39.956,9.731],[39.919,9.743],[39.877,9.754],[39.863,9.755],[39.857,9.754],[39.851,9.749],[39.84,9.725],[39.849,9.71],[39.854,9.7],[39.851,9.689],[39.859,9.656],[39.862,9.653],[39.88,9.625],[39.885,9.612],[39.882,9.594],[39.879,9.584],[39.878,9.578],[39.848,9.565],[39.858,9.557],[39.858,9.548],[39.849,9.526],[39.848,9.512],[39.838,9.503],[39.849,9.482],[39.873,9.46],[39.874,9.448],[39.872,9.443],[39.875,9.409],[39.88,9.401],[39.874,9.399],[39.822,9.418],[39.808,9.414],[39.801,9.401],[39.786,9.397],[39.792,9.371],[39.751,9.37],[39.752,9.362],[39.755,9.356],[39.771,9.334],[39.774,9.325],[39.79,9.305],[39.818,9.309],[39.835,9.316],[39.845,9.315],[39.861,9.308],[39.887,9.27],[39.858,9.271],[39.864,9.243],[39.874,9.235],[39.874,9.228],[39.866,9.221],[39.854,9.212],[39.849,9.203],[39.837,9.189],[39.814,9.172],[39.817,9.163],[39.816,9.155],[39.818,9.137],[39.85,9.139],[39.879,9.146],[39.899,9.14],[39.91,9.133],[39.916,9.098],[39.92,9.069],[39.929,9.055],[39.943,9.049],[39.953,9.031],[39.948,9.005],[39.969,9.005],[40,9.008],[40.023,9.003],[40.036,8.995],[40.048,8.979],[40.052,8.962],[40.045,8.943],[40.037,8.908],[40.02,8.89],[40.012,8.872],[40.011,8.857],[40.025,8.846],[40.041,8.842],[40.052,8.842],[40.068,8.845],[40.082,8.852],[40.095,8.863],[40.121,8.897],[40.153,8.933],[40.171,8.966],[40.188,8.975],[40.223,8.989],[40.239,8.998],[40.243,9.014],[40.247,9.036],[40.245,9.057],[40.246,9.076],[40.255,9.087],[40.301,9.129],[40.328,9.156],[40.37,9.219],[40.409,9.282],[40.427,9.305],[40.472,9.356],[40.5,9.376],[40.529,9.386],[40.607,9.392],[40.637,9.397],[40.66,9.405],[40.676,9.419],[40.694,9.445],[40.694,9.5],[40.7,9.534],[40.715,9.567],[40.723,9.591],[40.731,9.608],[40.736,9.623],[40.75,9.652],[40.764,9.668],[40.826,9.764],[40.848,9.791],[40.948,9.881],[40.997,9.93],[41.015,9.94],[41.02,9.95],[41.014,9.961],[41,9.969],[40.982,9.97],[40.967,9.973],[40.954,9.988],[40.947,10.002],[40.937,10.036],[40.95,10.069],[40.955,10.097],[40.976,10.158],[40.98,10.196],[40.991,10.241],[41.006,10.32],[41.016,10.344],[41.031,10.401],[41.033,10.423],[41.048,10.479],[41.058,10.501],[41.062,10.518],[41.072,10.542],[41.088,10.601],[41.083,10.633],[41.079,10.64],[41.08,10.66],[41.078,10.682],[41.091,10.698],[41.116,10.721],[41.134,10.745],[41.15,10.761],[41.167,10.781],[41.192,10.797],[41.208,10.821],[41.221,10.835],[41.233,10.865],[41.234,10.892],[41.242,10.922],[41.269,10.959],[41.301,10.965],[41.349,10.963],[41.393,10.967],[41.411,10.959],[41.485,10.968],[41.583,10.963],[41.635,10.966],[41.682,10.965],[41.7,10.97],[41.719,10.966],[41.74,10.969],[41.761,10.983]]]}},{"type":"Feature","properties":{"key":"Amhara","slug":"amhara","name":"Amhara"},"geometry":{"type":"Polygon","coordinates":[[[39.818,12.325],[39.778,12.312],[39.759,12.321],[39.722,12.309],[39.68,12.309],[39.633,12.308],[39.626,12.289],[39.606,12.271],[39.593,12.272],[39.556,12.256],[39.539,12.293],[39.508,12.334],[39.456,12.326],[39.428,12.303],[39.404,12.296],[39.373,12.302],[39.343,12.301],[39.323,12.306],[39.292,12.297],[39.264,12.331],[39.252,12.345],[39.247,12.361],[39.241,12.395],[39.242,12.426],[39.237,12.474],[39.232,12.494],[39.223,12.517],[39.219,12.531],[39.215,12.544],[39.21,12.561],[39.184,12.613],[39.175,12.644],[39.188,12.657],[39.213,12.662],[39.24,12.664],[39.281,12.689],[39.27,12.724],[39.282,12.744],[39.269,12.772],[39.297,12.786],[39.308,12.812],[39.291,12.839],[39.308,12.867],[39.296,12.872],[39.264,12.895],[39.252,12.919],[39.216,12.923],[39.194,12.929],[39.164,12.949],[39.151,12.954],[39.12,12.962],[39.084,12.96],[39.054,12.991],[39.035,13.001],[39.01,13.005],[38.995,13.012],[39.001,13.04],[38.991,13.064],[38.979,13.1],[39.021,13.128],[39.038,13.135],[39.042,13.162],[39.018,13.179],[38.986,13.203],[38.957,13.213],[38.954,13.224],[38.93,13.236],[38.914,13.225],[38.877,13.221],[38.864,13.21],[38.839,13.23],[38.82,13.235],[38.791,13.251],[38.744,13.266],[38.731,13.27],[38.741,13.287],[38.736,13.303],[38.739,13.313],[38.743,13.334],[38.735,13.35],[38.738,13.378],[38.734,13.399],[38.72,13.404],[38.697,13.39],[38.649,13.397],[38.623,13.412],[38.617,13.452],[38.649,13.482],[38.677,13.484],[38.677,13.498],[38.663,13.532],[38.623,13.496],[38.606,13.491],[38.58,13.504],[38.568,13.487],[38.546,13.484],[38.513,13.474],[38.462,13.46],[38.466,13.48],[38.499,13.485],[38.498,13.507],[38.509,13.512],[38.533,13.519],[38.552,13.539],[38.55,13.553],[38.502,13.559],[38.478,13.553],[38.474,13.565],[38.459,13.56],[38.444,13.561],[38.452,13.585],[38.434,13.58],[38.425,13.562],[38.4,13.54],[38.392,13.554],[38.381,13.545],[38.361,13.554],[38.342,13.538],[38.326,13.544],[38.321,13.525],[38.321,13.503],[38.269,13.488],[38.251,13.497],[38.244,13.497],[38.221,13.49],[38.202,13.481],[38.175,13.494],[38.156,13.477],[38.136,13.479],[38.129,13.493],[38.122,13.507],[38.084,13.484],[38.067,13.472],[38.053,13.469],[38.038,13.483],[38.025,13.486],[38.016,13.487],[38.002,13.502],[37.963,13.49],[37.905,13.448],[37.876,13.468],[37.818,13.464],[37.81,13.52],[37.786,13.54],[37.775,13.575],[37.785,13.598],[37.777,13.634],[37.765,13.619],[37.762,13.597],[37.755,13.592],[37.747,13.572],[37.728,13.564],[37.721,13.547],[37.716,13.535],[37.709,13.522],[37.7,13.496],[37.692,13.485],[37.686,13.466],[37.68,13.457],[37.667,13.447],[37.657,13.442],[37.638,13.415],[37.618,13.409],[37.605,13.41],[37.583,13.398],[37.562,13.388],[37.553,13.389],[37.527,13.372],[37.511,13.367],[37.496,13.368],[37.484,13.365],[37.472,13.368],[37.451,13.356],[37.438,13.359],[37.426,13.364],[37.417,13.375],[37.404,13.362],[37.389,13.357],[37.36,13.358],[37.353,13.343],[37.351,13.327],[37.34,13.319],[37.323,13.298],[37.281,13.286],[37.265,13.291],[37.251,13.296],[37.242,13.284],[37.225,13.275],[37.212,13.26],[37.187,13.283],[37.164,13.293],[37.151,13.301],[37.116,13.312],[37.085,13.315],[37.077,13.319],[37.066,13.331],[37.041,13.352],[37.026,13.355],[37.003,13.357],[36.983,13.362],[36.971,13.366],[36.961,13.368],[36.952,13.365],[36.939,13.381],[36.928,13.378],[36.916,13.383],[36.906,13.389],[36.896,13.408],[36.875,13.414],[36.862,13.426],[36.845,13.436],[36.839,13.445],[36.818,13.447],[36.809,13.419],[36.789,13.408],[36.773,13.39],[36.768,13.379],[36.75,13.372],[36.735,13.364],[36.723,13.367],[36.706,13.373],[36.673,13.369],[36.657,13.37],[36.645,13.379],[36.629,13.383],[36.606,13.378],[36.593,13.39],[36.58,13.412],[36.57,13.426],[36.572,13.45],[36.572,13.468],[36.58,13.483],[36.602,13.499],[36.58,13.521],[36.566,13.534],[36.565,13.548],[36.563,13.556],[36.555,13.572],[36.539,13.583],[36.52,13.586],[36.514,13.632],[36.507,13.653],[36.499,13.666],[36.483,13.689],[36.477,13.701],[36.479,13.721],[36.481,13.735],[36.456,13.755],[36.446,13.765],[36.403,13.644],[36.385,13.568],[36.379,13.538],[36.351,13.501],[36.289,13.388],[36.261,13.299],[36.238,13.216],[36.18,13.009],[36.169,12.979],[36.158,12.956],[36.154,12.934],[36.162,12.916],[36.182,12.874],[36.177,12.778],[36.157,12.707],[36.158,12.687],[36.109,12.687],[36.103,12.704],[36.074,12.72],[36.052,12.723],[36.016,12.72],[36.003,12.714],[35.773,12.661],[35.762,12.67],[35.737,12.66],[35.722,12.671],[35.686,12.649],[35.692,12.632],[35.684,12.61],[35.661,12.601],[35.431,12.237],[35.439,12.229],[35.443,12.212],[35.438,12.198],[35.424,12.186],[35.401,12.187],[35.338,12.064],[35.344,12.048],[35.341,12.024],[35.324,12.014],[35.303,12.016],[35.258,11.935],[35.285,11.885],[35.288,11.857],[35.289,11.831],[35.298,11.808],[35.304,11.804],[35.326,11.795],[35.338,11.774],[35.395,11.747],[35.442,11.731],[35.474,11.737],[35.535,11.73],[35.591,11.774],[35.646,11.782],[35.667,11.827],[35.695,11.832],[35.72,11.83],[35.757,11.832],[35.775,11.834],[35.816,11.829],[35.849,11.841],[35.869,11.86],[35.875,11.887],[35.912,11.906],[35.926,11.913],[35.944,11.937],[35.934,11.961],[35.94,11.971],[35.973,11.971],[35.979,11.961],[36.022,11.915],[36.035,11.893],[36.051,11.884],[36.057,11.875],[36.052,11.858],[36.067,11.852],[36.082,11.825],[36.106,11.817],[36.124,11.735],[36.126,11.72],[36.146,11.686],[36.166,11.679],[36.186,11.691],[36.208,11.722],[36.237,11.738],[36.284,11.773],[36.33,11.797],[36.338,11.774],[36.34,11.762],[36.34,11.744],[36.335,11.724],[36.333,11.705],[36.333,11.667],[36.349,11.606],[36.376,11.609],[36.392,11.584],[36.404,11.547],[36.414,11.533],[36.44,11.505],[36.439,11.493],[36.426,11.478],[36.41,11.459],[36.449,11.428],[36.472,11.437],[36.499,11.445],[36.513,11.459],[36.531,11.435],[36.542,11.395],[36.565,11.372],[36.56,11.355],[36.535,11.336],[36.557,11.33],[36.563,11.313],[36.546,11.306],[36.53,11.303],[36.506,11.286],[36.491,11.28],[36.468,11.266],[36.472,11.234],[36.468,11.216],[36.467,11.187],[36.468,11.156],[36.484,11.154],[36.504,11.138],[36.531,11.142],[36.554,11.133],[36.557,11.121],[36.567,11.112],[36.579,11.111],[36.568,11.103],[36.556,11.094],[36.533,11.114],[36.516,11.106],[36.492,11.077],[36.486,11.067],[36.471,11.056],[36.445,11.051],[36.428,11.036],[36.418,11.002],[36.355,10.938],[36.354,10.922],[36.346,10.912],[36.331,10.893],[36.328,10.883],[36.31,10.863],[36.315,10.852],[36.311,10.828],[36.296,10.816],[36.293,10.807],[36.284,10.797],[36.286,10.752],[36.295,10.744],[36.314,10.754],[36.326,10.77],[36.342,10.79],[36.358,10.791],[36.374,10.774],[36.375,10.759],[36.36,10.743],[36.332,10.727],[36.318,10.705],[36.323,10.686],[36.312,10.68],[36.321,10.668],[36.319,10.653],[36.307,10.645],[36.308,10.625],[36.298,10.621],[36.287,10.616],[36.285,10.6],[36.307,10.579],[36.303,10.555],[36.312,10.549],[36.319,10.529],[36.344,10.522],[36.356,10.528],[36.364,10.519],[36.372,10.506],[36.392,10.469],[36.41,10.456],[36.423,10.457],[36.446,10.457],[36.456,10.476],[36.486,10.484],[36.519,10.48],[36.538,10.474],[36.544,10.45],[36.524,10.411],[36.521,10.4],[36.532,10.383],[36.54,10.366],[36.558,10.364],[36.59,10.37],[36.618,10.356],[36.656,10.323],[36.669,10.315],[36.687,10.324],[36.689,10.346],[36.719,10.359],[36.732,10.362],[36.753,10.367],[36.767,10.363],[36.793,10.344],[36.807,10.336],[36.818,10.343],[36.834,10.343],[36.87,10.342],[36.884,10.322],[36.899,10.314],[36.925,10.315],[36.954,10.313],[36.972,10.316],[36.998,10.304],[37.014,10.286],[37.047,10.289],[37.063,10.283],[37.075,10.272],[37.088,10.26],[37.115,10.252],[37.175,10.244],[37.191,10.237],[37.201,10.224],[37.194,10.207],[37.172,10.175],[37.169,10.164],[37.192,10.113],[37.214,10.089],[37.263,10.078],[37.283,10.066],[37.297,10.054],[37.306,10.028],[37.324,10.009],[37.34,10.005],[37.35,10.013],[37.363,10.044],[37.381,10.044],[37.399,10.047],[37.445,10.016],[37.462,10.013],[37.479,10.01],[37.489,10.004],[37.521,10.001],[37.547,9.978],[37.554,9.96],[37.575,9.943],[37.591,9.934],[37.593,9.92],[37.614,9.91],[37.619,9.895],[37.637,9.887],[37.652,9.87],[37.668,9.86],[37.686,9.858],[37.701,9.838],[37.718,9.844],[37.732,9.846],[37.744,9.842],[37.749,9.857],[37.762,9.853],[37.775,9.857],[37.808,9.866],[37.824,9.875],[37.837,9.889],[37.849,9.899],[37.86,9.901],[37.861,9.914],[37.871,9.909],[37.877,9.917],[37.894,9.928],[37.91,9.931],[37.931,9.916],[37.936,9.927],[37.934,9.942],[37.953,9.939],[37.979,9.95],[38,9.955],[38.009,9.965],[38.026,9.969],[38.044,9.971],[38.061,9.983],[38.071,10.002],[38.084,10.008],[38.088,10.021],[38.102,10.023],[38.119,10.019],[38.119,10.03],[38.132,10.048],[38.143,10.044],[38.151,10.036],[38.168,10.047],[38.171,10.059],[38.185,10.068],[38.217,10.087],[38.241,10.104],[38.252,10.097],[38.259,10.089],[38.282,10.092],[38.296,10.09],[38.303,10.104],[38.323,10.108],[38.325,10.124],[38.334,10.152],[38.349,10.16],[38.358,10.152],[38.367,10.141],[38.398,10.145],[38.403,10.156],[38.427,10.173],[38.422,10.182],[38.42,10.214],[38.425,10.224],[38.449,10.241],[38.457,10.255],[38.464,10.269],[38.459,10.283],[38.473,10.293],[38.469,10.312],[38.476,10.323],[38.482,10.345],[38.477,10.357],[38.484,10.366],[38.516,10.368],[38.535,10.367],[38.561,10.377],[38.579,10.378],[38.606,10.376],[38.631,10.383],[38.665,10.374],[38.677,10.378],[38.698,10.38],[38.739,10.387],[38.762,10.377],[38.792,10.367],[38.816,10.365],[38.846,10.356],[38.857,10.296],[38.862,10.279],[38.845,10.252],[38.845,10.239],[38.834,10.213],[38.839,10.199],[38.835,10.163],[38.845,10.145],[38.849,10.125],[38.843,10.111],[38.83,10.111],[38.812,10.095],[38.8,10.091],[38.778,10.084],[38.759,10.069],[38.742,10.062],[38.722,10.052],[38.702,10.05],[38.69,10.051],[38.658,10.052],[38.662,10.035],[38.675,10.016],[38.687,10.009],[38.711,9.999],[38.726,9.992],[38.741,9.988],[38.759,9.982],[38.772,9.979],[38.786,9.979],[38.798,9.969],[38.804,9.955],[38.798,9.942],[38.799,9.929],[38.803,9.91],[38.792,9.884],[38.804,9.863],[38.809,9.836],[38.815,9.807],[38.822,9.785],[38.841,9.758],[38.867,9.735],[38.91,9.71],[38.929,9.726],[38.941,9.726],[38.961,9.712],[38.954,9.734],[38.965,9.75],[38.975,9.762],[38.991,9.747],[39.017,9.759],[39.031,9.756],[39.037,9.748],[39.07,9.754],[39.083,9.758],[39.093,9.764],[39.105,9.75],[39.099,9.736],[39.118,9.734],[39.134,9.742],[39.144,9.736],[39.145,9.722],[39.147,9.709],[39.157,9.69],[39.167,9.694],[39.179,9.69],[39.185,9.721],[39.201,9.71],[39.209,9.712],[39.218,9.709],[39.226,9.7],[39.234,9.7],[39.246,9.703],[39.261,9.73],[39.281,9.734],[39.293,9.746],[39.309,9.745],[39.321,9.725],[39.343,9.728],[39.342,9.718],[39.34,9.705],[39.365,9.702],[39.371,9.691],[39.372,9.671],[39.363,9.663],[39.358,9.649],[39.353,9.623],[39.363,9.62],[39.387,9.632],[39.386,9.612],[39.381,9.597],[39.374,9.584],[39.379,9.574],[39.373,9.565],[39.354,9.55],[39.331,9.528],[39.314,9.537],[39.303,9.513],[39.294,9.502],[39.302,9.489],[39.311,9.469],[39.339,9.476],[39.351,9.473],[39.364,9.475],[39.378,9.464],[39.374,9.448],[39.389,9.451],[39.412,9.448],[39.449,9.433],[39.448,9.42],[39.45,9.406],[39.453,9.395],[39.441,9.382],[39.421,9.372],[39.405,9.381],[39.377,9.385],[39.358,9.37],[39.338,9.382],[39.321,9.375],[39.307,9.367],[39.294,9.35],[39.286,9.317],[39.265,9.325],[39.286,9.279],[39.261,9.251],[39.208,9.293],[39.195,9.253],[39.215,9.229],[39.215,9.174],[39.25,9.137],[39.324,9.15],[39.33,9.138],[39.349,9.089],[39.355,9.072],[39.348,9.065],[39.298,9.054],[39.27,8.982],[39.266,8.923],[39.242,8.89],[39.261,8.852],[39.245,8.838],[39.255,8.814],[39.274,8.768],[39.271,8.726],[39.3,8.72],[39.325,8.748],[39.343,8.728],[39.378,8.732],[39.375,8.781],[39.387,8.8],[39.419,8.816],[39.441,8.769],[39.471,8.743],[39.502,8.716],[39.553,8.77],[39.592,8.798],[39.618,8.788],[39.651,8.804],[39.68,8.817],[39.734,8.827],[39.738,8.858],[39.749,8.911],[39.747,9.016],[39.741,9.041],[39.748,9.064],[39.765,9.096],[39.795,9.114],[39.803,9.127],[39.818,9.137],[39.817,9.163],[39.837,9.189],[39.854,9.212],[39.874,9.228],[39.864,9.243],[39.887,9.27],[39.845,9.315],[39.818,9.309],[39.774,9.325],[39.755,9.356],[39.751,9.37],[39.786,9.397],[39.808,9.414],[39.874,9.399],[39.875,9.409],[39.874,9.448],[39.849,9.482],[39.848,9.512],[39.858,9.548],[39.848,9.565],[39.879,9.584],[39.885,9.612],[39.862,9.653],[39.851,9.689],[39.849,9.71],[39.851,9.749],[39.863,9.755],[39.919,9.743],[39.974,9.73],[40.015,9.739],[40.003,9.749],[39.994,9.765],[40.009,9.79],[40.012,9.82],[40.029,9.831],[40.054,9.843],[40.059,9.865],[40.07,9.906],[40.09,9.936],[40.068,9.961],[40.06,9.978],[40.033,9.995],[39.993,9.994],[39.924,10.012],[39.944,10.06],[39.928,10.091],[39.97,10.086],[39.99,10.089],[40.025,10.075],[40.108,10.072],[40.159,10.091],[40.13,10.174],[40.156,10.258],[40.158,10.286],[40.16,10.357],[40.165,10.413],[40.154,10.44],[40.129,10.618],[40.103,10.741],[40.109,10.765],[40.134,10.78],[40.168,10.806],[40.168,10.835],[40.168,10.848],[40.177,10.879],[40.181,10.898],[40.134,10.916],[40.145,10.953],[40.188,11.026],[40.196,11.069],[40.213,11.11],[40.146,11.256],[40.103,11.318],[40.072,11.326],[40.068,11.361],[40.067,11.43],[40.062,11.475],[40.025,11.532],[39.994,11.585],[39.998,11.613],[39.995,11.682],[39.951,11.683],[39.912,11.719],[39.886,11.763],[39.876,11.78],[39.879,11.859],[39.888,11.907],[39.871,11.99],[39.862,12.013],[39.842,12.054],[39.861,12.084],[39.829,12.101],[39.814,12.157],[39.801,12.196],[39.804,12.23],[39.828,12.241],[39.826,12.318]],[[37.44,12.282],[37.446,12.286],[37.464,12.292],[37.48,12.3],[37.485,12.297],[37.492,12.295],[37.499,12.288],[37.501,12.281],[37.507,12.278],[37.519,12.264],[37.521,12.256],[37.526,12.251],[37.527,12.245],[37.539,12.239],[37.541,12.234],[37.546,12.23],[37.554,12.228],[37.559,12.224],[37.562,12.212],[37.562,12.205],[37.56,12.197],[37.567,12.194],[37.569,12.185],[37.575,12.176],[37.576,12.16],[37.585,12.156],[37.593,12.143],[37.595,12.13],[37.608,12.119],[37.614,12.111],[37.618,12.101],[37.617,12.09],[37.615,12.083],[37.601,12.052],[37.601,12.045],[37.591,12.035],[37.592,12.027],[37.588,12.014],[37.58,11.995],[37.574,11.989],[37.572,11.981],[37.573,11.974],[37.571,11.968],[37.549,11.922],[37.541,11.913],[37.523,11.896],[37.515,11.897],[37.513,11.904],[37.499,11.894],[37.503,11.884],[37.501,11.876],[37.501,11.87],[37.507,11.864],[37.51,11.852],[37.516,11.853],[37.515,11.838],[37.508,11.831],[37.5,11.833],[37.497,11.827],[37.482,11.826],[37.479,11.82],[37.473,11.83],[37.47,11.821],[37.47,11.815],[37.46,11.808],[37.462,11.801],[37.454,11.799],[37.45,11.795],[37.456,11.79],[37.457,11.775],[37.455,11.77],[37.449,11.766],[37.447,11.753],[37.441,11.753],[37.436,11.748],[37.436,11.742],[37.426,11.731],[37.425,11.723],[37.434,11.712],[37.434,11.707],[37.432,11.701],[37.421,11.687],[37.418,11.68],[37.417,11.673],[37.422,11.666],[37.422,11.656],[37.419,11.65],[37.412,11.641],[37.41,11.636],[37.411,11.627],[37.405,11.614],[37.408,11.608],[37.407,11.603],[37.408,11.596],[37.407,11.578],[37.404,11.571],[37.399,11.574],[37.392,11.573],[37.385,11.575],[37.38,11.578],[37.376,11.583],[37.381,11.595],[37.376,11.603],[37.374,11.613],[37.371,11.608],[37.366,11.613],[37.36,11.617],[37.346,11.614],[37.336,11.63],[37.329,11.634],[37.324,11.641],[37.318,11.643],[37.31,11.653],[37.304,11.649],[37.293,11.652],[37.292,11.66],[37.298,11.663],[37.304,11.673],[37.312,11.674],[37.314,11.687],[37.319,11.689],[37.324,11.679],[37.343,11.687],[37.349,11.685],[37.354,11.689],[37.357,11.694],[37.353,11.704],[37.343,11.713],[37.332,11.714],[37.325,11.711],[37.32,11.711],[37.32,11.717],[37.318,11.724],[37.314,11.728],[37.307,11.731],[37.302,11.736],[37.305,11.743],[37.305,11.771],[37.311,11.768],[37.311,11.776],[37.31,11.78],[37.293,11.798],[37.281,11.804],[37.277,11.81],[37.271,11.813],[37.252,11.814],[37.24,11.825],[37.234,11.828],[37.207,11.813],[37.179,11.803],[37.17,11.803],[37.16,11.801],[37.136,11.801],[37.124,11.808],[37.12,11.813],[37.117,11.825],[37.12,11.832],[37.126,11.835],[37.128,11.841],[37.126,11.847],[37.119,11.839],[37.111,11.835],[37.107,11.839],[37.103,11.831],[37.103,11.823],[37.106,11.816],[37.105,11.805],[37.112,11.808],[37.109,11.801],[37.099,11.796],[37.092,11.799],[37.088,11.805],[37.081,11.806],[37.08,11.822],[37.074,11.827],[37.055,11.831],[37.048,11.836],[37.046,11.851],[37.047,11.858],[37.035,11.87],[37.03,11.881],[37.019,11.887],[37.013,11.883],[37.005,11.883],[36.998,11.886],[36.993,11.898],[36.998,11.908],[37,11.902],[37.021,11.93],[37.021,11.938],[37.016,11.957],[37.021,11.97],[37.019,11.98],[37.016,11.988],[37.017,11.993],[37.02,11.998],[37.021,12.005],[37.019,12.011],[37.013,12.016],[37.023,12.075],[37.033,12.087],[37.028,12.092],[37.026,12.097],[37.029,12.109],[37.034,12.118],[37.032,12.126],[37.034,12.136],[37.034,12.149],[37.049,12.182],[37.053,12.187],[37.065,12.211],[37.071,12.217],[37.113,12.246],[37.118,12.243],[37.125,12.252],[37.144,12.266],[37.156,12.268],[37.161,12.265],[37.161,12.26],[37.158,12.254],[37.161,12.248],[37.168,12.243],[37.173,12.233],[37.172,12.219],[37.174,12.214],[37.173,12.203],[37.182,12.194],[37.188,12.191],[37.193,12.194],[37.199,12.194],[37.208,12.192],[37.205,12.203],[37.213,12.207],[37.224,12.206],[37.23,12.211],[37.243,12.208],[37.249,12.204],[37.254,12.196],[37.263,12.197],[37.277,12.202],[37.282,12.201],[37.287,12.205],[37.289,12.214],[37.301,12.231],[37.295,12.247],[37.304,12.263],[37.315,12.27],[37.327,12.275],[37.341,12.278],[37.346,12.274],[37.358,12.27],[37.362,12.265],[37.36,12.26],[37.374,12.258],[37.378,12.264],[37.383,12.266],[37.383,12.274],[37.385,12.278],[37.389,12.275],[37.403,12.273],[37.415,12.281],[37.42,12.28],[37.427,12.275],[37.44,12.282]]]}},{"type":"Feature","properties":{"key":"Beneshangul Gumu","slug":"benishangul-gumuz","name":"Beneshangul Gumu"},"geometry":{"type":"MultiPolygon","coordinates":[[[[36.249,8.975],[36.222,8.99],[36.18,8.987],[36.175,8.98],[36.223,8.951],[36.249,8.975]]],[[[35.258,11.935],[35.203,11.892],[35.158,11.862],[35.098,11.815],[35.047,11.736],[35.056,11.693],[35.077,11.646],[35.08,11.594],[35.079,11.522],[35.067,11.5],[35.039,11.417],[35.025,11.386],[35.006,11.362],[34.991,11.338],[34.977,11.31],[34.964,11.286],[34.949,11.277],[34.938,11.252],[34.926,11.244],[34.93,11.237],[34.962,11.237],[34.985,11.214],[34.997,11.199],[35.001,11.181],[34.985,11.099],[34.971,11.049],[34.961,10.992],[34.957,10.958],[34.983,10.899],[34.958,10.878],[34.928,10.857],[34.89,10.823],[34.868,10.809],[34.868,10.776],[34.858,10.757],[34.801,10.722],[34.786,10.711],[34.778,10.711],[34.791,10.741],[34.791,10.756],[34.766,10.756],[34.751,10.771],[34.729,10.795],[34.688,10.825],[34.611,10.898],[34.599,10.902],[34.584,10.888],[34.555,10.884],[34.546,10.869],[34.532,10.853],[34.506,10.845],[34.466,10.822],[34.452,10.793],[34.431,10.763],[34.407,10.714],[34.384,10.678],[34.346,10.631],[34.298,10.587],[34.294,10.561],[34.28,10.533],[34.281,10.516],[34.307,10.509],[34.327,10.477],[34.312,10.448],[34.294,10.407],[34.306,10.374],[34.324,10.294],[34.352,10.222],[34.343,10.202],[34.347,10.17],[34.334,10.143],[34.334,10.114],[34.298,10.087],[34.26,10.072],[34.234,10.048],[34.227,10.014],[34.219,9.962],[34.218,9.903],[34.204,9.865],[34.17,9.782],[34.147,9.719],[34.145,9.702],[34.133,9.641],[34.118,9.607],[34.101,9.552],[34.109,9.409],[34.118,9.345],[34.123,9.258],[34.135,9.173],[34.145,8.963],[34.431,8.968],[34.504,9.005],[34.484,9.048],[34.459,9.074],[34.428,9.073],[34.394,9.117],[34.342,9.17],[34.402,9.188],[34.44,9.217],[34.453,9.259],[34.452,9.31],[34.467,9.367],[34.453,9.45],[34.514,9.449],[34.499,9.515],[34.524,9.542],[34.533,9.592],[34.549,9.631],[34.586,9.631],[34.633,9.589],[34.687,9.565],[34.736,9.546],[34.784,9.554],[34.793,9.604],[34.812,9.631],[34.811,9.703],[34.797,9.737],[34.808,9.762],[34.832,9.804],[34.855,9.818],[34.87,9.822],[34.878,9.846],[34.893,9.866],[34.898,9.883],[34.868,9.903],[34.889,9.909],[34.905,9.957],[34.928,9.936],[34.944,9.935],[34.989,9.998],[35.016,9.996],[35.02,9.93],[35.049,9.919],[35.082,9.923],[35.082,9.94],[35.089,9.951],[35.16,9.949],[35.222,9.926],[35.224,9.911],[35.232,9.894],[35.279,9.908],[35.298,9.923],[35.312,9.912],[35.325,9.886],[35.351,9.867],[35.365,9.814],[35.388,9.803],[35.409,9.796],[35.42,9.786],[35.38,9.766],[35.384,9.76],[35.376,9.751],[35.366,9.728],[35.369,9.72],[35.39,9.721],[35.412,9.715],[35.456,9.673],[35.469,9.671],[35.506,9.69],[35.534,9.691],[35.535,9.697],[35.54,9.699],[35.554,9.697],[35.562,9.693],[35.579,9.667],[35.595,9.657],[35.626,9.652],[35.635,9.652],[35.654,9.636],[35.651,9.614],[35.644,9.596],[35.648,9.554],[35.672,9.518],[35.687,9.511],[35.712,9.488],[35.733,9.483],[35.754,9.483],[35.766,9.474],[35.778,9.441],[35.779,9.432],[35.767,9.429],[35.755,9.418],[35.751,9.404],[35.756,9.366],[35.75,9.35],[35.751,9.332],[35.758,9.325],[35.775,9.325],[35.798,9.31],[35.809,9.31],[35.861,9.326],[35.912,9.317],[35.919,9.287],[35.932,9.268],[35.95,9.25],[35.976,9.244],[36.032,9.234],[36.045,9.196],[36.054,9.12],[36.035,9.108],[36.029,9.057],[36.043,9.033],[36.043,9.016],[36.065,9.021],[36.087,9.014],[36.098,9.033],[36.076,9.064],[36.085,9.059],[36.095,9.066],[36.109,9.081],[36.129,9.052],[36.132,9.022],[36.16,9.022],[36.168,9.029],[36.178,9.046],[36.227,9.032],[36.247,9.042],[36.237,9.052],[36.208,9.068],[36.185,9.073],[36.162,9.106],[36.173,9.109],[36.205,9.158],[36.23,9.23],[36.227,9.273],[36.196,9.29],[36.195,9.327],[36.207,9.356],[36.235,9.348],[36.215,9.333],[36.216,9.316],[36.219,9.298],[36.254,9.303],[36.271,9.329],[36.276,9.345],[36.29,9.323],[36.296,9.303],[36.32,9.307],[36.327,9.332],[36.335,9.341],[36.35,9.346],[36.376,9.359],[36.462,9.358],[36.485,9.369],[36.476,9.396],[36.484,9.406],[36.508,9.42],[36.516,9.445],[36.499,9.474],[36.495,9.51],[36.462,9.529],[36.401,9.512],[36.381,9.481],[36.356,9.496],[36.337,9.513],[36.315,9.542],[36.302,9.557],[36.267,9.57],[36.233,9.571],[36.23,9.581],[36.202,9.616],[36.193,9.659],[36.193,9.689],[36.178,9.702],[36.163,9.731],[36.16,9.748],[36.144,9.759],[36.106,9.774],[36.137,9.808],[36.129,9.853],[36.153,9.85],[36.153,9.867],[36.135,9.917],[36.121,9.962],[36.121,9.973],[36.141,10.011],[36.185,10.051],[36.22,10.054],[36.26,10.079],[36.269,10.089],[36.273,10.114],[36.333,10.139],[36.37,10.163],[36.396,10.188],[36.417,10.218],[36.446,10.247],[36.492,10.235],[36.516,10.241],[36.523,10.251],[36.546,10.27],[36.55,10.28],[36.555,10.286],[36.577,10.28],[36.575,10.265],[36.611,10.26],[36.66,10.278],[36.693,10.297],[36.69,10.312],[36.686,10.319],[36.669,10.315],[36.663,10.317],[36.656,10.323],[36.638,10.348],[36.618,10.356],[36.606,10.366],[36.59,10.37],[36.574,10.364],[36.558,10.364],[36.549,10.362],[36.54,10.366],[36.533,10.377],[36.532,10.383],[36.524,10.395],[36.521,10.4],[36.521,10.407],[36.524,10.411],[36.533,10.432],[36.544,10.45],[36.547,10.458],[36.538,10.474],[36.528,10.484],[36.519,10.48],[36.512,10.48],[36.486,10.484],[36.464,10.48],[36.456,10.476],[36.45,10.46],[36.446,10.457],[36.436,10.453],[36.423,10.457],[36.418,10.455],[36.41,10.456],[36.403,10.46],[36.392,10.469],[36.383,10.491],[36.372,10.506],[36.365,10.507],[36.364,10.519],[36.36,10.531],[36.356,10.528],[36.349,10.525],[36.344,10.522],[36.327,10.524],[36.319,10.529],[36.312,10.543],[36.312,10.549],[36.309,10.553],[36.303,10.555],[36.303,10.572],[36.307,10.579],[36.294,10.598],[36.285,10.6],[36.282,10.605],[36.287,10.616],[36.292,10.621],[36.298,10.621],[36.302,10.624],[36.308,10.625],[36.304,10.639],[36.307,10.645],[36.312,10.65],[36.319,10.653],[36.325,10.663],[36.321,10.668],[36.313,10.675],[36.312,10.68],[36.319,10.68],[36.323,10.686],[36.317,10.698],[36.318,10.705],[36.327,10.715],[36.332,10.727],[36.353,10.741],[36.36,10.743],[36.363,10.749],[36.375,10.759],[36.377,10.766],[36.374,10.774],[36.378,10.787],[36.358,10.791],[36.35,10.791],[36.342,10.79],[36.332,10.771],[36.326,10.77],[36.325,10.764],[36.314,10.754],[36.312,10.748],[36.295,10.744],[36.286,10.745],[36.286,10.752],[36.289,10.773],[36.284,10.797],[36.283,10.805],[36.293,10.807],[36.3,10.811],[36.296,10.816],[36.306,10.821],[36.311,10.828],[36.31,10.837],[36.315,10.852],[36.31,10.855],[36.31,10.863],[36.323,10.88],[36.328,10.883],[36.333,10.888],[36.331,10.893],[36.332,10.899],[36.346,10.912],[36.348,10.918],[36.354,10.922],[36.351,10.931],[36.355,10.938],[36.367,10.947],[36.418,11.002],[36.423,11.032],[36.428,11.036],[36.437,11.04],[36.445,11.051],[36.452,11.054],[36.471,11.056],[36.479,11.068],[36.486,11.067],[36.49,11.07],[36.492,11.077],[36.501,11.086],[36.516,11.106],[36.526,11.114],[36.533,11.114],[36.535,11.099],[36.556,11.094],[36.56,11.101],[36.568,11.103],[36.576,11.102],[36.579,11.111],[36.574,11.113],[36.567,11.112],[36.561,11.114],[36.557,11.121],[36.554,11.128],[36.554,11.133],[36.55,11.139],[36.531,11.142],[36.512,11.138],[36.504,11.138],[36.49,11.147],[36.484,11.154],[36.476,11.158],[36.468,11.156],[36.469,11.179],[36.467,11.187],[36.469,11.198],[36.468,11.216],[36.461,11.227],[36.472,11.234],[36.477,11.246],[36.468,11.266],[36.484,11.273],[36.491,11.28],[36.496,11.29],[36.506,11.286],[36.516,11.29],[36.53,11.303],[36.538,11.306],[36.546,11.306],[36.558,11.303],[36.563,11.313],[36.563,11.319],[36.557,11.33],[36.548,11.338],[36.535,11.336],[36.54,11.346],[36.56,11.355],[36.564,11.359],[36.565,11.372],[36.552,11.387],[36.542,11.395],[36.534,11.395],[36.531,11.435],[36.522,11.445],[36.513,11.459],[36.504,11.459],[36.499,11.445],[36.49,11.441],[36.472,11.437],[36.468,11.429],[36.449,11.428],[36.411,11.415],[36.41,11.459],[36.42,11.468],[36.426,11.478],[36.436,11.488],[36.439,11.493],[36.445,11.494],[36.44,11.505],[36.435,11.512],[36.414,11.533],[36.415,11.546],[36.404,11.547],[36.391,11.572],[36.392,11.584],[36.38,11.597],[36.376,11.609],[36.366,11.601],[36.349,11.606],[36.339,11.652],[36.333,11.667],[36.348,11.697],[36.333,11.705],[36.335,11.718],[36.335,11.724],[36.34,11.738],[36.34,11.744],[36.341,11.749],[36.34,11.762],[36.342,11.769],[36.338,11.774],[36.342,11.782],[36.33,11.797],[36.31,11.804],[36.284,11.773],[36.262,11.754],[36.237,11.738],[36.232,11.723],[36.208,11.722],[36.202,11.707],[36.186,11.691],[36.177,11.685],[36.166,11.679],[36.158,11.687],[36.146,11.686],[36.119,11.707],[36.126,11.72],[36.117,11.724],[36.124,11.735],[36.118,11.775],[36.106,11.817],[36.096,11.814],[36.082,11.825],[36.085,11.836],[36.067,11.852],[36.055,11.85],[36.052,11.858],[36.05,11.867],[36.057,11.875],[36.046,11.877],[36.051,11.884],[36.039,11.886],[36.035,11.893],[36.043,11.896],[36.022,11.915],[35.997,11.928],[35.979,11.961],[35.97,11.959],[35.973,11.971],[35.967,11.985],[35.94,11.971],[35.936,11.967],[35.934,11.961],[35.941,11.955],[35.944,11.937],[35.937,11.922],[35.926,11.913],[35.919,11.906],[35.912,11.906],[35.888,11.892],[35.875,11.887],[35.871,11.866],[35.869,11.86],[35.861,11.851],[35.849,11.841],[35.824,11.828],[35.816,11.829],[35.804,11.839],[35.775,11.834],[35.764,11.838],[35.757,11.832],[35.738,11.834],[35.72,11.83],[35.706,11.823],[35.695,11.832],[35.684,11.826],[35.667,11.827],[35.662,11.794],[35.646,11.782],[35.624,11.777],[35.591,11.774],[35.577,11.768],[35.535,11.73],[35.518,11.719],[35.474,11.737],[35.462,11.736],[35.442,11.731],[35.423,11.73],[35.395,11.747],[35.365,11.754],[35.338,11.774],[35.336,11.783],[35.326,11.795],[35.314,11.793],[35.304,11.804],[35.297,11.8],[35.298,11.808],[35.297,11.82],[35.289,11.831],[35.285,11.847],[35.288,11.857],[35.288,11.871],[35.285,11.885],[35.276,11.905],[35.258,11.935]]]]}},{"type":"Feature","properties":{"key":"Dire Dawa","slug":"dire-dawa","name":"Dire Dawa"},"geometry":{"type":"Polygon","coordinates":[[[42.143,9.621],[42.181,9.645],[42.201,9.654],[42.221,9.657],[42.242,9.658],[42.26,9.653],[42.273,9.668],[42.287,9.677],[42.319,9.707],[42.329,9.714],[42.341,9.721],[42.294,9.758],[42.252,9.784],[42.214,9.785],[42.187,9.775],[42.032,9.619],[42.02,9.619],[42.009,9.623],[41.997,9.632],[41.907,9.68],[41.874,9.685],[41.854,9.675],[41.81,9.642],[41.802,9.643],[41.792,9.65],[41.775,9.655],[41.75,9.637],[41.75,9.602],[41.729,9.49],[41.736,9.472],[41.755,9.486],[41.774,9.492],[41.793,9.491],[41.816,9.478],[41.84,9.479],[41.861,9.489],[41.914,9.473],[41.94,9.481],[41.983,9.509],[41.991,9.508],[41.996,9.507],[42.02,9.509],[42.033,9.505],[42.045,9.499],[42.053,9.493],[42.069,9.476],[42.076,9.475],[42.082,9.489],[42.097,9.502],[42.111,9.509],[42.14,9.536],[42.154,9.557],[42.147,9.572],[42.134,9.583],[42.129,9.599],[42.126,9.616],[42.143,9.621]]]}},{"type":"Feature","properties":{"key":"Gambela","slug":"gambela","name":"Gambela"},"geometry":{"type":"Polygon","coordinates":[[[35.117,7.646],[35.078,7.732],[34.996,7.749],[34.933,7.729],[34.938,7.766],[34.933,7.829],[34.945,7.881],[34.951,7.891],[35.001,7.863],[35.014,7.884],[35.009,7.925],[35.049,7.956],[35.109,7.958],[35.142,7.99],[35.141,8.023],[35.119,8.084],[35.09,8.115],[35.105,8.116],[35.144,8.144],[35.158,8.138],[35.139,8.183],[35.12,8.202],[35.074,8.221],[35.019,8.221],[34.966,8.248],[34.883,8.252],[34.856,8.252],[34.827,8.263],[34.787,8.305],[34.796,8.328],[34.786,8.356],[34.768,8.364],[34.729,8.391],[34.668,8.396],[34.631,8.403],[34.575,8.405],[34.557,8.456],[34.523,8.477],[34.472,8.449],[34.437,8.423],[34.348,8.378],[34.33,8.388],[34.314,8.391],[34.316,8.408],[34.336,8.44],[34.345,8.47],[34.358,8.501],[34.359,8.523],[34.346,8.601],[34.313,8.683],[34.28,8.71],[34.256,8.704],[34.236,8.687],[34.224,8.671],[34.19,8.653],[34.142,8.653],[34.143,8.612],[34.122,8.576],[34.097,8.551],[34.082,8.55],[34.071,8.543],[34.062,8.532],[34.034,8.511],[34.028,8.498],[34.021,8.49],[34.016,8.488],[34.001,8.494],[33.992,8.489],[33.986,8.49],[33.973,8.499],[33.957,8.494],[33.947,8.499],[33.936,8.496],[33.926,8.488],[33.899,8.482],[33.894,8.474],[33.89,8.463],[33.882,8.461],[33.882,8.454],[33.876,8.447],[33.878,8.437],[33.866,8.436],[33.853,8.433],[33.841,8.432],[33.838,8.427],[33.828,8.421],[33.821,8.407],[33.814,8.401],[33.808,8.396],[33.8,8.395],[33.773,8.371],[33.756,8.373],[33.75,8.376],[33.738,8.367],[33.733,8.365],[33.726,8.365],[33.717,8.367],[33.71,8.372],[33.701,8.374],[33.695,8.381],[33.693,8.393],[33.689,8.401],[33.684,8.407],[33.679,8.431],[33.681,8.442],[33.65,8.459],[33.621,8.47],[33.611,8.463],[33.598,8.448],[33.577,8.448],[33.569,8.455],[33.563,8.469],[33.557,8.47],[33.542,8.469],[33.534,8.47],[33.525,8.468],[33.52,8.469],[33.512,8.472],[33.499,8.472],[33.49,8.47],[33.483,8.458],[33.476,8.453],[33.461,8.45],[33.449,8.439],[33.438,8.441],[33.425,8.448],[33.412,8.44],[33.396,8.425],[33.388,8.426],[33.381,8.433],[33.373,8.432],[33.368,8.442],[33.361,8.441],[33.35,8.446],[33.336,8.444],[33.321,8.45],[33.315,8.461],[33.306,8.456],[33.3,8.443],[33.296,8.438],[33.29,8.438],[33.281,8.449],[33.275,8.454],[33.249,8.445],[33.247,8.436],[33.235,8.424],[33.218,8.434],[33.216,8.428],[33.218,8.416],[33.217,8.409],[33.209,8.406],[33.193,8.408],[33.191,8.403],[33.196,8.393],[33.191,8.388],[33.19,8.381],[33.194,8.352],[33.201,8.351],[33.217,8.356],[33.215,8.343],[33.211,8.336],[33.205,8.334],[33.193,8.334],[33.194,8.327],[33.202,8.314],[33.202,8.307],[33.196,8.299],[33.171,8.297],[33.177,8.285],[33.174,8.264],[33.176,8.256],[33.181,8.249],[33.19,8.25],[33.199,8.249],[33.203,8.235],[33.197,8.219],[33.191,8.212],[33.176,8.203],[33.167,8.196],[33.168,8.189],[33.173,8.189],[33.178,8.167],[33.185,8.161],[33.185,8.146],[33.19,8.136],[33.187,8.125],[33.174,8.128],[33.167,8.124],[33.164,8.115],[33.159,8.112],[33.137,8.113],[33.121,8.108],[33.118,8.102],[33.117,8.088],[33.119,8.064],[33.112,8.073],[33.105,8.077],[33.086,8.076],[33.084,8.071],[33.087,8.062],[33.08,8.055],[33.081,8.049],[33.078,8.026],[33.074,8.021],[33.06,8.015],[33.047,8.016],[33.037,8.006],[33.031,7.992],[33.037,7.975],[33.029,7.962],[33.01,7.95],[33.003,7.941],[33.006,7.928],[33.003,7.917],[33.005,7.907],[33.014,7.89],[33.005,7.886],[33.002,7.88],[33.011,7.859],[33.038,7.821],[33.045,7.813],[33.046,7.803],[33.051,7.788],[33.057,7.792],[33.063,7.787],[33.074,7.792],[33.085,7.794],[33.089,7.801],[33.096,7.797],[33.106,7.788],[33.103,7.781],[33.11,7.78],[33.116,7.786],[33.124,7.784],[33.134,7.789],[33.138,7.785],[33.146,7.791],[33.157,7.793],[33.158,7.798],[33.166,7.797],[33.185,7.785],[33.2,7.78],[33.218,7.772],[33.225,7.771],[33.239,7.775],[33.248,7.765],[33.282,7.743],[33.296,7.747],[33.293,7.736],[33.3,7.741],[33.304,7.735],[33.304,7.727],[33.316,7.722],[33.32,7.713],[33.321,7.707],[33.343,7.712],[33.352,7.725],[33.36,7.721],[33.375,7.731],[33.382,7.731],[33.391,7.729],[33.408,7.736],[33.417,7.742],[33.425,7.749],[33.432,7.753],[33.449,7.741],[33.462,7.742],[33.465,7.748],[33.474,7.745],[33.491,7.732],[33.501,7.736],[33.503,7.728],[33.516,7.733],[33.541,7.705],[33.551,7.703],[33.563,7.695],[33.581,7.688],[33.587,7.698],[33.6,7.707],[33.613,7.703],[33.623,7.709],[33.631,7.702],[33.637,7.693],[33.665,7.692],[33.673,7.693],[33.684,7.683],[33.682,7.675],[33.691,7.67],[33.695,7.661],[33.713,7.658],[33.721,7.653],[33.734,7.641],[33.738,7.629],[33.753,7.618],[33.77,7.613],[33.778,7.605],[33.794,7.606],[33.835,7.569],[33.841,7.56],[33.857,7.543],[33.872,7.519],[33.888,7.513],[33.904,7.519],[33.927,7.513],[33.948,7.503],[33.944,7.494],[33.944,7.482],[33.946,7.469],[33.957,7.464],[33.958,7.448],[33.985,7.437],[33.993,7.425],[33.999,7.42],[34.013,7.394],[34.029,7.371],[34.034,7.355],[34.031,7.338],[34.032,7.317],[34.036,7.295],[34.034,7.276],[34.028,7.267],[34.011,7.271],[34.012,7.261],[34.02,7.251],[34.035,7.237],[34.045,7.222],[34.055,7.222],[34.077,7.211],[34.093,7.198],[34.1,7.187],[34.1,7.181],[34.129,7.176],[34.146,7.157],[34.166,7.158],[34.193,7.139],[34.194,7.056],[34.216,7.048],[34.233,7.017],[34.256,7.023],[34.288,6.998],[34.323,6.975],[34.36,6.965],[34.384,6.965],[34.411,6.954],[34.485,6.906],[34.521,6.865],[34.531,6.844],[34.535,6.813],[34.537,6.754],[34.562,6.741],[34.614,6.734],[34.63,6.75],[34.651,6.734],[34.682,6.704],[34.709,6.698],[34.716,6.665],[34.731,6.649],[34.748,6.626],[34.773,6.598],[34.789,6.585],[34.807,6.601],[34.845,6.6],[34.857,6.609],[34.89,6.598],[34.885,6.578],[34.906,6.573],[34.921,6.558],[34.94,6.548],[34.955,6.52],[34.957,6.505],[34.985,6.49],[35.007,6.466],[35.015,6.446],[35.004,6.416],[35.004,6.404],[34.999,6.396],[34.987,6.388],[34.989,6.347],[34.986,6.3],[35.012,6.282],[35.039,6.306],[35.074,6.309],[35.084,6.319],[35.107,6.32],[35.12,6.348],[35.132,6.397],[35.144,6.399],[35.166,6.384],[35.179,6.381],[35.2,6.412],[35.187,6.446],[35.175,6.468],[35.186,6.491],[35.188,6.559],[35.196,6.599],[35.187,6.628],[35.188,6.658],[35.198,6.681],[35.179,6.711],[35.18,6.729],[35.148,6.762],[35.081,6.812],[35.044,6.812],[34.986,6.799],[34.934,6.798],[34.946,6.828],[34.97,6.861],[34.993,6.865],[34.999,6.894],[34.975,6.926],[34.946,6.945],[34.912,6.989],[34.903,7.032],[34.885,7.032],[34.878,7.071],[34.893,7.093],[34.891,7.161],[34.899,7.186],[34.943,7.194],[34.966,7.216],[34.971,7.235],[34.979,7.214],[35.012,7.196],[35.022,7.187],[35.055,7.185],[35.084,7.126],[35.115,7.103],[35.205,7.101],[35.219,7.109],[35.235,7.139],[35.265,7.137],[35.281,7.131],[35.301,7.117],[35.314,7.116],[35.332,7.128],[35.355,7.12],[35.373,7.118],[35.381,7.124],[35.369,7.145],[35.354,7.155],[35.335,7.181],[35.335,7.189],[35.341,7.188],[35.374,7.232],[35.347,7.24],[35.354,7.264],[35.371,7.279],[35.376,7.291],[35.384,7.335],[35.388,7.352],[35.393,7.397],[35.369,7.416],[35.374,7.429],[35.357,7.438],[35.346,7.454],[35.33,7.463],[35.321,7.464],[35.31,7.48],[35.273,7.473],[35.263,7.481],[35.254,7.48],[35.245,7.475],[35.21,7.473],[35.19,7.457],[35.162,7.473],[35.123,7.48],[35.121,7.485],[35.128,7.497],[35.139,7.513],[35.147,7.521],[35.173,7.534],[35.171,7.556],[35.165,7.582],[35.167,7.616],[35.146,7.631],[35.116,7.632],[35.117,7.646]]]}},{"type":"Feature","properties":{"key":"Hareri","slug":"harari","name":"Hareri"},"geometry":{"type":"Polygon","coordinates":[[[42.254,9.191],[42.26,9.193],[42.266,9.199],[42.273,9.217],[42.27,9.231],[42.263,9.245],[42.257,9.254],[42.25,9.271],[42.251,9.287],[42.267,9.311],[42.266,9.322],[42.259,9.335],[42.271,9.363],[42.254,9.385],[42.239,9.386],[42.223,9.38],[42.188,9.363],[42.169,9.364],[42.148,9.389],[42.13,9.39],[42.115,9.374],[42.086,9.33],[42.071,9.305],[42.061,9.267],[42.06,9.25],[42.062,9.227],[42.075,9.222],[42.113,9.232],[42.122,9.229],[42.128,9.228],[42.149,9.207],[42.167,9.211],[42.183,9.218],[42.198,9.221],[42.209,9.213],[42.222,9.197],[42.235,9.187],[42.247,9.188],[42.254,9.191]]]}},{"type":"Feature","properties":{"key":"Oromia","slug":"oromia","name":"Oromia"},"geometry":{"type":"Polygon","coordinates":[[[39.818,9.137],[39.798,9.122],[39.765,9.096],[39.747,9.056],[39.747,9.016],[39.739,8.873],[39.734,8.827],[39.663,8.814],[39.618,8.788],[39.563,8.819],[39.502,8.716],[39.45,8.753],[39.419,8.816],[39.379,8.792],[39.378,8.732],[39.332,8.742],[39.3,8.72],[39.263,8.748],[39.255,8.814],[39.266,8.844],[39.242,8.89],[39.259,8.964],[39.298,9.054],[39.358,9.063],[39.349,9.089],[39.321,9.141],[39.25,9.137],[39.189,9.21],[39.195,9.253],[39.235,9.295],[39.286,9.279],[39.279,9.313],[39.294,9.35],[39.32,9.367],[39.338,9.382],[39.374,9.377],[39.405,9.381],[39.427,9.38],[39.453,9.395],[39.444,9.415],[39.449,9.433],[39.395,9.456],[39.374,9.448],[39.376,9.468],[39.351,9.473],[39.316,9.468],[39.302,9.489],[39.306,9.506],[39.314,9.537],[39.342,9.546],[39.373,9.565],[39.379,9.581],[39.381,9.597],[39.39,9.617],[39.363,9.62],[39.354,9.635],[39.363,9.663],[39.362,9.681],[39.365,9.702],[39.339,9.711],[39.343,9.728],[39.314,9.732],[39.293,9.746],[39.269,9.741],[39.246,9.703],[39.229,9.695],[39.218,9.709],[39.206,9.708],[39.185,9.721],[39.175,9.696],[39.157,9.69],[39.149,9.716],[39.144,9.736],[39.124,9.736],[39.099,9.736],[39.103,9.756],[39.083,9.758],[39.051,9.754],[39.031,9.756],[39.013,9.753],[38.975,9.762],[38.953,9.74],[38.961,9.712],[38.936,9.729],[38.91,9.71],[38.859,9.746],[38.822,9.785],[38.809,9.821],[38.804,9.863],[38.797,9.89],[38.799,9.929],[38.802,9.947],[38.798,9.969],[38.78,9.983],[38.759,9.982],[38.734,9.994],[38.711,9.999],[38.682,10.014],[38.662,10.035],[38.664,10.058],[38.702,10.05],[38.735,10.057],[38.759,10.069],[38.793,10.09],[38.812,10.095],[38.84,10.115],[38.849,10.125],[38.84,10.15],[38.839,10.199],[38.836,10.227],[38.845,10.252],[38.86,10.287],[38.846,10.356],[38.807,10.37],[38.762,10.377],[38.713,10.388],[38.677,10.378],[38.657,10.375],[38.606,10.376],[38.567,10.375],[38.535,10.367],[38.504,10.364],[38.477,10.357],[38.476,10.332],[38.469,10.312],[38.461,10.291],[38.464,10.269],[38.455,10.248],[38.425,10.224],[38.431,10.194],[38.427,10.173],[38.402,10.15],[38.367,10.141],[38.355,10.156],[38.334,10.152],[38.327,10.115],[38.303,10.104],[38.287,10.089],[38.259,10.089],[38.249,10.103],[38.217,10.087],[38.177,10.064],[38.168,10.047],[38.146,10.038],[38.132,10.048],[38.118,10.025],[38.102,10.023],[38.081,10.016],[38.071,10.002],[38.049,9.982],[38.026,9.969],[38.003,9.961],[37.979,9.95],[37.94,9.945],[37.936,9.927],[37.924,9.916],[37.894,9.928],[37.875,9.912],[37.861,9.914],[37.857,9.897],[37.837,9.889],[37.817,9.868],[37.775,9.857],[37.755,9.858],[37.744,9.842],[37.725,9.846],[37.701,9.838],[37.681,9.863],[37.652,9.87],[37.624,9.89],[37.614,9.91],[37.59,9.928],[37.575,9.943],[37.552,9.974],[37.521,10.001],[37.484,10.004],[37.462,10.013],[37.425,10.035],[37.381,10.044],[37.358,10.041],[37.34,10.005],[37.319,10.019],[37.297,10.054],[37.272,10.075],[37.214,10.089],[37.181,10.145],[37.172,10.175],[37.198,10.215],[37.191,10.237],[37.136,10.247],[37.088,10.26],[37.071,10.277],[37.047,10.289],[37.008,10.29],[36.972,10.316],[36.932,10.312],[36.899,10.314],[36.877,10.335],[36.834,10.343],[36.813,10.338],[36.793,10.344],[36.763,10.368],[36.732,10.362],[36.692,10.358],[36.687,10.324],[36.693,10.297],[36.575,10.265],[36.55,10.28],[36.516,10.241],[36.417,10.218],[36.333,10.139],[36.26,10.079],[36.141,10.011],[36.135,9.917],[36.129,9.853],[36.144,9.759],[36.178,9.702],[36.202,9.616],[36.267,9.57],[36.337,9.513],[36.401,9.512],[36.499,9.474],[36.484,9.406],[36.462,9.358],[36.335,9.341],[36.296,9.303],[36.271,9.329],[36.216,9.316],[36.207,9.356],[36.227,9.273],[36.173,9.109],[36.208,9.068],[36.227,9.032],[36.16,9.022],[36.109,9.081],[36.076,9.064],[36.065,9.021],[36.029,9.057],[36.045,9.196],[35.95,9.25],[35.912,9.317],[35.798,9.31],[35.751,9.332],[35.751,9.404],[35.779,9.432],[35.754,9.483],[35.687,9.511],[35.644,9.596],[35.635,9.652],[35.579,9.667],[35.54,9.699],[35.506,9.69],[35.412,9.715],[35.366,9.728],[35.38,9.766],[35.388,9.803],[35.325,9.886],[35.279,9.908],[35.222,9.926],[35.082,9.94],[35.02,9.93],[34.944,9.935],[34.889,9.909],[34.893,9.866],[34.855,9.818],[34.797,9.737],[34.793,9.604],[34.687,9.565],[34.549,9.631],[34.499,9.515],[34.467,9.367],[34.44,9.217],[34.394,9.117],[34.484,9.048],[34.145,8.963],[34.14,8.772],[34.145,8.671],[34.224,8.671],[34.28,8.71],[34.359,8.523],[34.336,8.44],[34.33,8.388],[34.472,8.449],[34.575,8.405],[34.729,8.391],[34.796,8.328],[34.856,8.252],[35.019,8.221],[35.139,8.183],[35.105,8.116],[35.141,8.023],[35.049,7.956],[35.001,7.863],[34.933,7.829],[34.996,7.749],[35.174,7.655],[35.221,7.681],[35.276,7.747],[35.312,7.762],[35.343,7.823],[35.373,7.834],[35.41,7.845],[35.434,7.884],[35.491,7.884],[35.513,7.893],[35.537,7.851],[35.571,7.814],[35.619,7.816],[35.694,7.866],[35.74,7.868],[35.8,7.934],[35.783,7.955],[35.739,7.99],[35.745,8.052],[35.799,8.08],[35.873,8.06],[35.906,7.947],[35.875,7.877],[35.849,7.84],[35.899,7.808],[35.987,7.756],[36.043,7.676],[36.033,7.593],[36.063,7.559],[36.157,7.544],[36.225,7.486],[36.349,7.447],[36.454,7.419],[36.599,7.37],[36.634,7.379],[36.673,7.329],[36.74,7.286],[36.842,7.327],[36.956,7.262],[37.004,7.236],[37.106,7.226],[37.184,7.266],[37.263,7.327],[37.332,7.351],[37.391,7.404],[37.446,7.565],[37.408,7.659],[37.401,7.742],[37.425,7.879],[37.43,7.932],[37.391,7.963],[37.393,7.994],[37.425,8.004],[37.492,8.018],[37.519,7.993],[37.54,7.955],[37.574,7.953],[37.602,8.012],[37.596,8.113],[37.625,8.201],[37.518,8.237],[37.465,8.284],[37.472,8.352],[37.536,8.425],[37.599,8.366],[37.68,8.379],[37.718,8.335],[37.766,8.348],[37.817,8.333],[37.888,8.351],[37.949,8.369],[38.029,8.391],[38.078,8.382],[38.111,8.391],[38.165,8.409],[38.239,8.41],[38.29,8.382],[38.313,8.354],[38.323,8.273],[38.376,8.267],[38.422,8.29],[38.442,8.336],[38.469,8.436],[38.528,8.459],[38.585,8.434],[38.618,8.432],[38.662,8.377],[38.652,8.286],[38.717,8.232],[38.683,8.192],[38.68,8.097],[38.655,8.115],[38.604,8.224],[38.562,8.267],[38.543,8.227],[38.582,8.173],[38.589,8.128],[38.623,8.07],[38.629,8.035],[38.613,8.008],[38.587,7.939],[38.564,7.886],[38.504,7.832],[38.446,7.761],[38.427,7.698],[38.419,7.644],[38.402,7.596],[38.426,7.555],[38.415,7.505],[38.342,7.48],[38.326,7.435],[38.293,7.393],[38.282,7.34],[38.247,7.298],[38.199,7.263],[38.126,7.223],[38.079,7.181],[38.067,7.089],[38.065,7.045],[38.103,7.012],[38.13,6.975],[38.195,7.014],[38.255,7.061],[38.314,7.148],[38.358,7.147],[38.422,7.124],[38.465,7.101],[38.529,7.092],[38.584,7.128],[38.647,7.097],[38.669,7.061],[38.679,7.03],[38.69,7.002],[38.715,6.993],[38.696,6.959],[38.701,6.905],[38.699,6.85],[38.637,6.801],[38.659,6.771],[38.689,6.746],[38.728,6.713],[38.78,6.701],[38.834,6.693],[38.878,6.669],[38.935,6.657],[38.943,6.612],[39.06,6.61],[39.049,6.571],[39.087,6.546],[39.101,6.457],[39.128,6.346],[39.11,6.289],[39.101,6.22],[39.131,6.167],[39.081,6.154],[38.989,6.148],[38.937,6.202],[38.886,6.286],[38.833,6.344],[38.759,6.41],[38.691,6.407],[38.646,6.424],[38.584,6.438],[38.505,6.438],[38.442,6.407],[38.423,6.35],[38.426,6.291],[38.436,6.2],[38.366,6.144],[38.321,6.049],[38.273,5.988],[38.305,5.981],[38.339,5.957],[38.397,5.921],[38.326,5.87],[38.255,5.86],[38.209,5.842],[38.21,5.88],[38.205,5.936],[38.16,5.986],[38.122,6.018],[38.101,6.079],[38.088,6.162],[38.126,6.156],[38.172,6.168],[38.194,6.227],[38.175,6.268],[38.198,6.32],[38.249,6.338],[38.294,6.373],[38.284,6.439],[38.222,6.462],[38.156,6.441],[38.14,6.507],[38.092,6.527],[38.017,6.577],[37.97,6.55],[37.919,6.576],[37.872,6.583],[37.809,6.502],[37.798,6.431],[37.841,6.38],[37.853,6.306],[37.826,6.222],[37.779,6.151],[37.779,6.099],[37.784,6.012],[37.814,5.999],[37.857,6],[37.896,5.976],[37.954,5.965],[37.98,5.909],[38.013,5.806],[38.055,5.765],[38.088,5.723],[38.025,5.661],[37.944,5.641],[37.942,5.57],[37.948,5.476],[37.92,5.397],[37.906,5.305],[37.886,5.236],[37.811,5.27],[37.748,5.278],[37.675,5.309],[37.631,5.267],[37.552,5.235],[37.466,5.195],[37.342,5.161],[37.239,5.201],[37.183,5.195],[37.083,5.188],[36.95,5.196],[36.883,5.076],[36.862,4.936],[36.829,4.711],[36.658,4.582],[36.867,4.433],[36.957,4.398],[36.986,4.387],[37.059,4.344],[37.124,4.284],[37.249,4.219],[37.354,4.148],[37.517,4.041],[37.578,4],[37.632,3.964],[37.711,3.906],[37.834,3.825],[37.93,3.761],[37.997,3.728],[38.014,3.71],[38.052,3.669],[38.127,3.608],[38.182,3.619],[38.278,3.613],[38.438,3.603],[38.512,3.624],[38.514,3.648],[38.545,3.641],[38.554,3.614],[38.597,3.606],[38.656,3.596],[38.671,3.611],[38.679,3.623],[38.707,3.584],[38.83,3.534],[38.897,3.513],[38.964,3.53],[39.016,3.514],[39.048,3.523],[39.094,3.536],[39.4,3.797],[39.479,4.042],[39.541,4.237],[39.62,4.37],[39.675,4.507],[39.711,4.599],[39.741,4.656],[39.759,4.802],[39.805,4.953],[39.879,5.142],[40.035,5.398],[40.135,5.359],[40.241,5.367],[40.37,5.388],[40.564,5.455],[40.634,5.531],[40.754,5.596],[40.866,5.67],[40.879,5.989],[40.87,6.096],[40.869,6.153],[40.881,6.268],[40.865,6.354],[40.861,6.437],[40.937,6.552],[41.072,6.689],[41.157,6.678],[41.359,6.567],[41.529,6.466],[41.657,6.41],[41.705,6.454],[41.8,6.559],[41.862,6.537],[42,6.591],[42.001,6.63],[42.016,6.682],[42.064,6.827],[42.077,6.888],[42.135,6.955],[42.159,7.053],[42.204,7.196],[42.2,7.293],[41.869,7.539],[41.943,7.729],[41.923,7.979],[42.028,8.324],[42.071,8.495],[42.234,8.636],[42.276,8.616],[42.324,8.538],[42.531,8.456],[42.568,8.257],[42.632,8.142],[42.679,8.148],[42.72,8.247],[42.769,8.364],[42.859,8.393],[42.898,8.459],[42.909,8.55],[42.861,8.637],[42.838,8.729],[42.866,8.805],[42.806,8.871],[42.704,8.982],[42.645,9.074],[42.61,9.119],[42.636,9.16],[42.585,9.216],[42.562,9.271],[42.557,9.322],[42.553,9.383],[42.604,9.418],[42.657,9.457],[42.716,9.476],[42.748,9.503],[42.815,9.574],[42.881,9.586],[42.922,9.566],[42.981,9.608],[42.952,9.673],[42.918,9.659],[42.855,9.663],[42.751,9.712],[42.704,9.759],[42.665,9.778],[42.569,9.738],[42.377,9.715],[42.341,9.721],[42.287,9.677],[42.242,9.658],[42.181,9.645],[42.129,9.599],[42.154,9.557],[42.097,9.502],[42.069,9.476],[42.033,9.505],[41.991,9.508],[41.914,9.473],[41.816,9.478],[41.755,9.486],[41.703,9.468],[41.643,9.516],[41.565,9.508],[41.492,9.458],[41.394,9.487],[41.31,9.504],[41.253,9.501],[41.196,9.463],[41.084,9.405],[41.015,9.358],[40.928,9.324],[40.845,9.306],[40.809,9.328],[40.79,9.388],[40.859,9.386],[40.928,9.406],[40.863,9.464],[40.784,9.449],[40.694,9.445],[40.637,9.397],[40.5,9.376],[40.409,9.282],[40.301,9.129],[40.245,9.057],[40.239,8.998],[40.171,8.966],[40.095,8.863],[40.052,8.842],[40.011,8.857],[40.037,8.908],[40.048,8.979],[40,9.008],[39.953,9.031],[39.92,9.069],[39.899,9.14],[39.818,9.137]],[[38.813,8.841],[38.798,8.835],[38.793,8.837],[38.781,8.837],[38.779,8.843],[38.778,8.853],[38.774,8.859],[38.762,8.855],[38.757,8.854],[38.755,8.86],[38.746,8.864],[38.746,8.871],[38.748,8.878],[38.744,8.881],[38.745,8.893],[38.744,8.904],[38.737,8.902],[38.732,8.906],[38.72,8.921],[38.709,8.922],[38.703,8.927],[38.698,8.934],[38.695,8.943],[38.689,8.941],[38.681,8.942],[38.682,8.951],[38.677,8.959],[38.644,8.967],[38.64,8.975],[38.655,8.978],[38.66,8.986],[38.659,8.996],[38.652,9.004],[38.653,9.011],[38.668,9.011],[38.668,9.027],[38.673,9.034],[38.673,9.04],[38.684,9.051],[38.685,9.067],[38.686,9.074],[38.702,9.082],[38.708,9.083],[38.717,9.089],[38.728,9.087],[38.739,9.088],[38.752,9.092],[38.766,9.099],[38.772,9.099],[38.779,9.095],[38.792,9.079],[38.801,9.08],[38.806,9.083],[38.826,9.077],[38.843,9.08],[38.85,9.079],[38.858,9.085],[38.869,9.086],[38.877,9.083],[38.883,9.07],[38.884,9.053],[38.894,9.038],[38.902,9.021],[38.906,9.011],[38.907,8.999],[38.905,8.993],[38.907,8.978],[38.904,8.963],[38.897,8.956],[38.902,8.947],[38.898,8.938],[38.892,8.935],[38.862,8.944],[38.856,8.939],[38.862,8.933],[38.88,8.919],[38.874,8.906],[38.878,8.897],[38.871,8.882],[38.87,8.874],[38.865,8.884],[38.859,8.885],[38.848,8.881],[38.842,8.881],[38.834,8.884],[38.827,8.881],[38.828,8.875],[38.83,8.87],[38.825,8.854],[38.825,8.842],[38.818,8.84],[38.813,8.841]],[[36.249,8.975],[36.223,8.951],[36.175,8.98],[36.18,8.987],[36.222,8.99],[36.249,8.975]],[[42.254,9.191],[42.247,9.188],[42.235,9.187],[42.222,9.197],[42.209,9.213],[42.198,9.221],[42.183,9.218],[42.167,9.211],[42.149,9.207],[42.128,9.228],[42.122,9.229],[42.113,9.232],[42.075,9.222],[42.062,9.227],[42.06,9.25],[42.061,9.267],[42.071,9.305],[42.086,9.33],[42.115,9.374],[42.13,9.39],[42.148,9.389],[42.169,9.364],[42.188,9.363],[42.223,9.38],[42.239,9.386],[42.254,9.385],[42.271,9.363],[42.259,9.335],[42.266,9.322],[42.267,9.311],[42.251,9.287],[42.25,9.271],[42.257,9.254],[42.263,9.245],[42.27,9.231],[42.273,9.217],[42.266,9.199],[42.26,9.193],[42.254,9.191]]]}},{"type":"Feature","properties":{"key":"SNNPR","slug":"snnpr","name":"SNNPR"},"geometry":{"type":"Polygon","coordinates":[[[34.986,6.3],[34.95,6.253],[34.965,6.213],[34.966,6.185],[34.966,6.146],[34.958,6.129],[34.966,6.091],[34.988,6.069],[34.993,6.02],[34.999,5.983],[34.988,5.956],[34.998,5.926],[34.992,5.897],[35.096,5.732],[35.122,5.692],[35.126,5.675],[35.122,5.622],[35.227,5.55],[35.284,5.512],[35.3,5.492],[35.304,5.467],[35.301,5.447],[35.291,5.427],[35.288,5.391],[35.286,5.377],[35.309,5.331],[35.335,5.334],[35.368,5.35],[35.407,5.361],[35.427,5.374],[35.469,5.407],[35.488,5.414],[35.506,5.419],[35.517,5.415],[35.54,5.416],[35.656,5.382],[35.763,5.353],[35.809,5.341],[35.82,5.333],[35.836,5.329],[35.848,5.32],[35.858,5.311],[35.858,5.296],[35.847,5.282],[35.833,5.268],[35.825,5.257],[35.823,5.238],[35.828,5.224],[35.85,5.197],[35.859,5.176],[35.855,5.15],[35.833,5.121],[35.81,5.095],[35.811,5.071],[35.805,4.947],[35.799,4.88],[35.787,4.751],[35.827,4.682],[35.874,4.626],[35.966,4.513],[36.04,4.456],[36.089,4.45],[36.156,4.448],[36.245,4.456],[36.354,4.444],[36.455,4.445],[36.618,4.451],[36.657,4.441],[36.658,4.582],[36.647,4.712],[36.856,4.737],[36.862,4.936],[36.861,4.98],[36.894,5.111],[36.95,5.196],[37.004,5.2],[37.113,5.188],[37.183,5.195],[37.218,5.214],[37.293,5.196],[37.342,5.161],[37.418,5.168],[37.492,5.204],[37.552,5.235],[37.581,5.249],[37.638,5.285],[37.675,5.309],[37.73,5.294],[37.774,5.285],[37.811,5.27],[37.853,5.236],[37.902,5.246],[37.906,5.305],[37.902,5.375],[37.936,5.424],[37.948,5.476],[37.949,5.539],[37.942,5.586],[37.944,5.641],[38.009,5.651],[38.042,5.675],[38.088,5.723],[38.073,5.764],[38.04,5.774],[38.013,5.806],[37.983,5.889],[37.978,5.929],[37.954,5.965],[37.905,5.962],[37.881,5.986],[37.857,6],[37.828,6.011],[37.805,5.994],[37.784,6.012],[37.786,6.074],[37.777,6.115],[37.779,6.151],[37.811,6.197],[37.841,6.25],[37.853,6.306],[37.849,6.333],[37.82,6.395],[37.798,6.431],[37.801,6.479],[37.815,6.512],[37.872,6.583],[37.913,6.592],[37.934,6.558],[37.97,6.55],[37.998,6.577],[38.034,6.563],[38.092,6.527],[38.115,6.501],[38.151,6.498],[38.156,6.441],[38.216,6.465],[38.246,6.469],[38.284,6.439],[38.294,6.397],[38.289,6.361],[38.249,6.338],[38.215,6.331],[38.189,6.306],[38.175,6.268],[38.18,6.24],[38.199,6.208],[38.172,6.168],[38.142,6.156],[38.118,6.168],[38.088,6.162],[38.099,6.088],[38.106,6.067],[38.122,6.018],[38.151,6.002],[38.171,5.958],[38.205,5.936],[38.216,5.895],[38.201,5.866],[38.209,5.842],[38.24,5.846],[38.271,5.87],[38.326,5.87],[38.382,5.905],[38.389,5.934],[38.339,5.957],[38.32,5.976],[38.294,5.975],[38.273,5.988],[38.315,6.029],[38.352,6.098],[38.366,6.144],[38.395,6.183],[38.44,6.218],[38.426,6.291],[38.426,6.308],[38.425,6.367],[38.442,6.407],[38.476,6.432],[38.538,6.438],[38.584,6.438],[38.628,6.418],[38.662,6.42],[38.691,6.407],[38.739,6.41],[38.772,6.401],[38.833,6.344],[38.875,6.302],[38.899,6.26],[38.937,6.202],[38.961,6.161],[39.035,6.139],[39.081,6.154],[39.133,6.16],[39.114,6.178],[39.101,6.22],[39.092,6.272],[39.12,6.3],[39.128,6.346],[39.108,6.439],[39.096,6.473],[39.087,6.546],[39.053,6.558],[39.054,6.585],[39.06,6.61],[38.96,6.602],[38.945,6.632],[38.935,6.657],[38.903,6.667],[38.856,6.67],[38.834,6.693],[38.811,6.703],[38.755,6.698],[38.728,6.713],[38.706,6.743],[38.679,6.75],[38.659,6.771],[38.637,6.773],[38.641,6.814],[38.699,6.85],[38.706,6.887],[38.705,6.932],[38.696,6.959],[38.712,6.975],[38.711,7.014],[38.69,7.002],[38.675,7.018],[38.685,7.035],[38.669,7.061],[38.638,7.067],[38.631,7.112],[38.584,7.128],[38.547,7.092],[38.506,7.089],[38.465,7.101],[38.443,7.128],[38.401,7.123],[38.358,7.147],[38.323,7.163],[38.306,7.123],[38.255,7.061],[38.217,7.016],[38.171,7.002],[38.13,6.975],[38.11,7.001],[38.089,7.024],[38.065,7.045],[38.062,7.073],[38.07,7.124],[38.079,7.181],[38.105,7.212],[38.145,7.233],[38.199,7.263],[38.234,7.289],[38.266,7.308],[38.282,7.34],[38.28,7.382],[38.31,7.403],[38.326,7.435],[38.328,7.463],[38.379,7.496],[38.415,7.505],[38.43,7.535],[38.42,7.571],[38.402,7.596],[38.421,7.626],[38.412,7.663],[38.427,7.698],[38.443,7.74],[38.493,7.797],[38.504,7.832],[38.55,7.872],[38.567,7.907],[38.587,7.939],[38.598,7.992],[38.611,8.013],[38.629,8.035],[38.617,8.058],[38.594,8.092],[38.589,8.128],[38.588,8.157],[38.569,8.195],[38.543,8.227],[38.55,8.264],[38.594,8.261],[38.604,8.224],[38.636,8.133],[38.667,8.097],[38.68,8.097],[38.679,8.172],[38.694,8.204],[38.717,8.232],[38.663,8.272],[38.667,8.328],[38.662,8.377],[38.64,8.413],[38.605,8.433],[38.585,8.434],[38.549,8.454],[38.502,8.445],[38.469,8.436],[38.453,8.386],[38.433,8.313],[38.422,8.29],[38.383,8.275],[38.348,8.255],[38.323,8.273],[38.309,8.331],[38.312,8.371],[38.29,8.382],[38.267,8.408],[38.218,8.41],[38.165,8.409],[38.123,8.408],[38.104,8.39],[38.078,8.382],[38.04,8.39],[38.009,8.374],[37.949,8.369],[37.911,8.372],[37.864,8.337],[37.817,8.333],[37.78,8.341],[37.749,8.353],[37.718,8.335],[37.693,8.355],[37.667,8.385],[37.599,8.366],[37.559,8.427],[37.513,8.418],[37.472,8.352],[37.463,8.307],[37.473,8.267],[37.518,8.237],[37.622,8.21],[37.618,8.178],[37.596,8.113],[37.593,8.075],[37.602,7.975],[37.574,7.953],[37.55,7.95],[37.534,7.961],[37.519,7.993],[37.502,8.013],[37.478,8.015],[37.425,8.004],[37.405,7.995],[37.391,7.986],[37.391,7.963],[37.417,7.945],[37.438,7.92],[37.425,7.879],[37.406,7.828],[37.402,7.711],[37.408,7.659],[37.436,7.585],[37.439,7.547],[37.391,7.404],[37.357,7.362],[37.332,7.345],[37.263,7.327],[37.212,7.294],[37.155,7.242],[37.106,7.226],[37.04,7.241],[36.965,7.226],[36.956,7.262],[36.88,7.331],[36.792,7.253],[36.74,7.286],[36.695,7.314],[36.653,7.346],[36.634,7.379],[36.607,7.37],[36.485,7.417],[36.454,7.419],[36.375,7.417],[36.303,7.451],[36.225,7.486],[36.182,7.525],[36.128,7.557],[36.063,7.559],[36.036,7.574],[36.048,7.635],[36.043,7.676],[35.998,7.746],[35.942,7.775],[35.899,7.808],[35.861,7.83],[35.852,7.849],[35.875,7.877],[35.903,7.927],[35.9,7.972],[35.873,8.06],[35.817,8.084],[35.767,8.082],[35.745,8.052],[35.724,8.024],[35.768,7.97],[35.783,7.955],[35.801,7.942],[35.777,7.9],[35.74,7.868],[35.704,7.86],[35.677,7.855],[35.619,7.816],[35.59,7.81],[35.555,7.821],[35.537,7.851],[35.521,7.897],[35.506,7.886],[35.491,7.884],[35.46,7.874],[35.429,7.882],[35.41,7.845],[35.39,7.828],[35.359,7.844],[35.343,7.823],[35.326,7.766],[35.294,7.753],[35.276,7.747],[35.223,7.704],[35.221,7.664],[35.174,7.655],[35.116,7.632],[35.167,7.616],[35.171,7.556],[35.147,7.521],[35.128,7.497],[35.123,7.48],[35.19,7.457],[35.245,7.475],[35.263,7.481],[35.31,7.48],[35.33,7.463],[35.357,7.438],[35.369,7.416],[35.388,7.352],[35.376,7.291],[35.354,7.264],[35.374,7.232],[35.335,7.189],[35.354,7.155],[35.381,7.124],[35.355,7.12],[35.314,7.116],[35.281,7.131],[35.235,7.139],[35.205,7.101],[35.084,7.126],[35.022,7.187],[34.979,7.214],[34.966,7.216],[34.899,7.186],[34.893,7.093],[34.885,7.032],[34.912,6.989],[34.975,6.926],[34.993,6.865],[34.946,6.828],[34.986,6.799],[35.081,6.812],[35.18,6.729],[35.198,6.681],[35.187,6.628],[35.188,6.559],[35.175,6.468],[35.2,6.412],[35.166,6.384],[35.132,6.397],[35.107,6.32],[35.074,6.309],[35.012,6.282]]]}},{"type":"Feature","properties":{"key":"Somali","slug":"somali","name":"Somali"},"geometry":{"type":"Polygon","coordinates":[[[40.694,9.445],[40.699,9.449],[40.72,9.445],[40.784,9.449],[40.817,9.454],[40.843,9.465],[40.863,9.464],[40.891,9.45],[40.918,9.423],[40.928,9.406],[40.915,9.398],[40.892,9.391],[40.859,9.386],[40.829,9.394],[40.799,9.397],[40.79,9.388],[40.794,9.368],[40.801,9.346],[40.809,9.328],[40.813,9.312],[40.826,9.306],[40.845,9.306],[40.875,9.31],[40.904,9.319],[40.928,9.324],[40.954,9.337],[40.972,9.353],[41.015,9.358],[41.031,9.373],[41.057,9.392],[41.084,9.405],[41.146,9.426],[41.171,9.442],[41.196,9.463],[41.221,9.492],[41.24,9.5],[41.253,9.501],[41.268,9.5],[41.281,9.503],[41.31,9.504],[41.337,9.496],[41.36,9.491],[41.394,9.487],[41.434,9.477],[41.48,9.461],[41.492,9.458],[41.523,9.486],[41.542,9.501],[41.565,9.508],[41.599,9.512],[41.634,9.514],[41.643,9.516],[41.655,9.482],[41.671,9.472],[41.703,9.468],[41.723,9.469],[41.736,9.472],[41.729,9.49],[41.75,9.602],[41.75,9.637],[41.775,9.655],[41.792,9.65],[41.802,9.643],[41.81,9.642],[41.854,9.675],[41.874,9.685],[41.907,9.68],[41.997,9.632],[42.009,9.623],[42.02,9.619],[42.032,9.619],[42.187,9.775],[42.214,9.785],[42.252,9.784],[42.294,9.758],[42.341,9.721],[42.347,9.722],[42.357,9.719],[42.377,9.715],[42.449,9.723],[42.5,9.722],[42.569,9.738],[42.619,9.759],[42.648,9.776],[42.665,9.778],[42.682,9.775],[42.695,9.77],[42.704,9.759],[42.715,9.742],[42.731,9.722],[42.751,9.712],[42.791,9.694],[42.824,9.675],[42.855,9.663],[42.899,9.651],[42.909,9.651],[42.918,9.659],[42.927,9.673],[42.936,9.681],[42.952,9.673],[42.965,9.657],[42.979,9.63],[42.981,9.608],[42.97,9.593],[42.944,9.589],[42.922,9.566],[42.91,9.564],[42.893,9.575],[42.881,9.586],[42.865,9.588],[42.842,9.584],[42.815,9.574],[42.788,9.524],[42.777,9.513],[42.748,9.503],[42.737,9.496],[42.73,9.484],[42.716,9.476],[42.683,9.471],[42.667,9.46],[42.657,9.457],[42.642,9.448],[42.618,9.428],[42.604,9.418],[42.586,9.41],[42.568,9.397],[42.553,9.383],[42.538,9.374],[42.553,9.346],[42.557,9.322],[42.548,9.306],[42.552,9.288],[42.562,9.271],[42.572,9.259],[42.581,9.239],[42.585,9.216],[42.596,9.195],[42.615,9.175],[42.636,9.16],[42.636,9.145],[42.627,9.133],[42.61,9.119],[42.6,9.107],[42.62,9.09],[42.645,9.074],[42.663,9.05],[42.681,9.016],[42.704,8.982],[42.732,8.949],[42.762,8.919],[42.806,8.871],[42.85,8.845],[42.866,8.826],[42.866,8.805],[42.858,8.786],[42.845,8.759],[42.838,8.729],[42.833,8.696],[42.839,8.665],[42.861,8.637],[42.9,8.604],[42.906,8.583],[42.909,8.55],[42.913,8.523],[42.912,8.5],[42.898,8.459],[42.9,8.41],[42.885,8.4],[42.859,8.393],[42.799,8.371],[42.78,8.374],[42.769,8.364],[42.755,8.338],[42.736,8.295],[42.72,8.247],[42.712,8.208],[42.703,8.181],[42.679,8.148],[42.662,8.131],[42.652,8.131],[42.632,8.142],[42.617,8.161],[42.579,8.23],[42.568,8.257],[42.551,8.352],[42.54,8.398],[42.531,8.456],[42.521,8.48],[42.503,8.493],[42.324,8.538],[42.308,8.561],[42.296,8.587],[42.276,8.616],[42.264,8.637],[42.241,8.641],[42.234,8.636],[42.217,8.612],[42.099,8.52],[42.071,8.495],[42.042,8.449],[42.027,8.427],[42.028,8.324],[41.949,8.202],[41.927,8.082],[41.923,7.979],[41.913,7.846],[41.958,7.776],[41.943,7.729],[41.906,7.637],[41.879,7.564],[41.869,7.539],[41.868,7.534],[41.897,7.412],[42.2,7.293],[42.211,7.265],[42.211,7.228],[42.204,7.196],[42.206,7.142],[42.188,7.098],[42.159,7.053],[42.164,7.008],[42.141,6.968],[42.135,6.955],[42.107,6.931],[42.1,6.917],[42.077,6.888],[42.076,6.865],[42.068,6.842],[42.064,6.827],[42.056,6.75],[42.026,6.708],[42.016,6.682],[42.014,6.66],[42,6.643],[42.001,6.63],[42.007,6.616],[42.005,6.599],[42,6.591],[41.937,6.554],[41.889,6.537],[41.862,6.537],[41.855,6.57],[41.821,6.572],[41.8,6.559],[41.759,6.542],[41.74,6.521],[41.705,6.454],[41.691,6.431],[41.685,6.425],[41.657,6.41],[41.634,6.393],[41.621,6.363],[41.529,6.466],[41.439,6.545],[41.381,6.567],[41.359,6.567],[41.229,6.624],[41.175,6.66],[41.157,6.678],[41.132,6.693],[41.073,6.696],[41.072,6.689],[41.016,6.646],[40.991,6.605],[40.937,6.552],[40.901,6.513],[40.886,6.473],[40.861,6.437],[40.858,6.387],[40.862,6.362],[40.865,6.354],[40.863,6.347],[40.865,6.322],[40.881,6.268],[40.883,6.246],[40.879,6.189],[40.869,6.153],[40.867,6.135],[40.867,6.115],[40.87,6.096],[40.868,6.078],[40.872,6.057],[40.879,5.989],[40.876,5.809],[40.923,5.685],[40.866,5.67],[40.833,5.657],[40.812,5.636],[40.754,5.596],[40.695,5.569],[40.68,5.542],[40.634,5.531],[40.606,5.492],[40.582,5.477],[40.564,5.455],[40.55,5.429],[40.534,5.412],[40.37,5.388],[40.311,5.378],[40.278,5.37],[40.241,5.367],[40.209,5.357],[40.175,5.355],[40.135,5.359],[40.099,5.366],[40.064,5.38],[40.035,5.398],[39.943,5.286],[39.908,5.221],[39.879,5.142],[39.834,5.034],[39.814,5.003],[39.805,4.953],[39.785,4.892],[39.766,4.848],[39.759,4.802],[39.744,4.725],[39.747,4.668],[39.741,4.656],[39.726,4.634],[39.718,4.617],[39.711,4.599],[39.704,4.57],[39.691,4.545],[39.675,4.507],[39.656,4.47],[39.643,4.437],[39.62,4.37],[39.587,4.298],[39.568,4.266],[39.541,4.237],[39.53,4.168],[39.51,4.116],[39.479,4.042],[39.501,3.967],[39.484,3.943],[39.4,3.797],[39.286,3.625],[39.221,3.604],[39.094,3.536],[39.107,3.521],[39.136,3.512],[39.201,3.481],[39.281,3.474],[39.3,3.478],[39.329,3.48],[39.33,3.474],[39.333,3.468],[39.406,3.466],[39.416,3.464],[39.425,3.459],[39.468,3.458],[39.487,3.461],[39.495,3.459],[39.499,3.455],[39.505,3.438],[39.512,3.412],[39.517,3.406],[39.528,3.4],[39.545,3.403],[39.555,3.41],[39.56,3.414],[39.566,3.428],[39.579,3.474],[39.583,3.48],[39.61,3.504],[39.617,3.514],[39.707,3.606],[39.772,3.67],[39.837,3.815],[39.855,3.848],[39.863,3.866],[40.019,3.949],[40.107,3.991],[40.12,3.998],[40.127,4.004],[40.17,4.025],[40.192,4.038],[40.21,4.041],[40.232,4.048],[40.373,4.104],[40.385,4.103],[40.401,4.117],[40.44,4.136],[40.65,4.223],[40.671,4.231],[40.688,4.233],[40.707,4.244],[40.722,4.247],[40.745,4.259],[40.759,4.27],[40.776,4.279],[40.793,4.271],[40.806,4.255],[40.827,4.239],[40.882,4.187],[40.914,4.164],[40.938,4.15],[40.955,4.126],[40.982,4.094],[41.008,4.079],[41.026,4.063],[41.043,4.051],[41.058,4.028],[41.102,3.999],[41.114,3.988],[41.147,3.978],[41.173,3.963],[41.193,3.961],[41.216,3.976],[41.289,3.965],[41.333,3.961],[41.38,3.959],[41.434,3.961],[41.473,3.958],[41.498,3.963],[41.557,3.957],[41.579,3.962],[41.654,3.968],[41.678,3.968],[41.698,3.974],[41.725,3.971],[41.753,3.976],[41.768,3.982],[41.8,3.977],[41.845,3.982],[41.86,3.988],[41.884,3.988],[41.902,3.987],[41.915,3.998],[41.928,4.004],[41.939,4.02],[41.96,4.033],[41.973,4.044],[41.983,4.051],[41.995,4.076],[42.006,4.088],[42.015,4.099],[42.043,4.114],[42.058,4.12],[42.079,4.133],[42.116,4.134],[42.159,4.145],[42.205,4.163],[42.306,4.163],[42.346,4.167],[42.397,4.165],[42.437,4.168],[42.52,4.19],[42.547,4.188],[42.575,4.202],[42.597,4.2],[42.613,4.211],[42.64,4.209],[42.653,4.22],[42.693,4.226],[42.716,4.234],[42.731,4.245],[42.757,4.252],[42.778,4.27],[42.803,4.277],[42.816,4.286],[42.83,4.302],[42.861,4.324],[42.875,4.337],[42.89,4.345],[42.904,4.357],[42.917,4.372],[42.949,4.397],[42.959,4.423],[42.974,4.434],[42.992,4.469],[43.009,4.489],[43.013,4.509],[43.014,4.521],[43.028,4.539],[43.034,4.556],[43.068,4.58],[43.084,4.596],[43.111,4.618],[43.131,4.631],[43.152,4.646],[43.164,4.66],[43.202,4.676],[43.23,4.693],[43.251,4.703],[43.271,4.711],[43.287,4.727],[43.308,4.737],[43.326,4.741],[43.354,4.758],[43.357,4.767],[43.375,4.77],[43.385,4.774],[43.398,4.785],[43.428,4.79],[43.456,4.802],[43.489,4.809],[43.511,4.812],[43.527,4.818],[43.553,4.833],[43.57,4.834],[43.58,4.84],[43.601,4.845],[43.613,4.847],[43.623,4.851],[43.683,4.865],[43.714,4.874],[43.757,4.885],[43.789,4.887],[43.807,4.9],[43.845,4.907],[43.865,4.912],[43.895,4.914],[44.03,4.941],[44.079,4.937],[44.124,4.945],[44.151,4.947],[44.202,4.94],[44.308,4.937],[44.384,4.938],[44.548,4.923],[44.627,4.924],[44.679,4.915],[44.732,4.92],[44.828,4.914],[44.904,4.914],[44.963,4.92],[45.003,4.934],[45.081,5.012],[45.669,5.624],[45.899,5.858],[45.946,5.911],[46.123,6.091],[46.178,6.155],[46.805,6.804],[47.959,8.014],[47,7.986],[46.737,8.071],[45.622,8.444],[44.157,8.939],[44.122,8.963],[44.062,8.987],[44.054,8.999],[44.036,9.008],[44.019,9.026],[44.004,9.032],[43.976,9.038],[43.959,9.066],[43.913,9.104],[43.885,9.124],[43.867,9.143],[43.844,9.158],[43.805,9.198],[43.771,9.219],[43.762,9.232],[43.737,9.247],[43.726,9.26],[43.711,9.271],[43.683,9.28],[43.668,9.306],[43.655,9.318],[43.645,9.324],[43.63,9.336],[43.625,9.347],[43.598,9.362],[43.582,9.379],[43.57,9.386],[43.555,9.391],[43.547,9.402],[43.535,9.407],[43.498,9.409],[43.493,9.422],[43.483,9.436],[43.467,9.442],[43.457,9.448],[43.448,9.458],[43.416,9.478],[43.406,9.512],[43.389,9.526],[43.38,9.543],[43.369,9.558],[43.356,9.565],[43.357,9.578],[43.346,9.596],[43.337,9.606],[43.319,9.631],[43.308,9.639],[43.302,9.654],[43.299,9.668],[43.29,9.679],[43.288,9.694],[43.276,9.702],[43.273,9.718],[43.275,9.727],[43.275,9.742],[43.266,9.753],[43.265,9.771],[43.257,9.784],[43.251,9.792],[43.25,9.804],[43.252,9.829],[43.239,9.84],[43.232,9.85],[43.223,9.859],[43.214,9.873],[43.201,9.881],[43.168,9.889],[43.159,9.901],[43.144,9.905],[43.137,9.915],[43.099,9.922],[43.093,9.936],[43.082,9.94],[43.079,9.956],[43.067,9.979],[43.064,9.997],[43.053,10.004],[43.042,10.023],[43.027,10.038],[43.022,10.049],[43.013,10.058],[43.005,10.07],[42.995,10.081],[42.971,10.091],[42.968,10.1],[42.954,10.112],[42.939,10.131],[42.909,10.16],[42.885,10.187],[42.857,10.226],[42.841,10.267],[42.82,10.292],[42.805,10.316],[42.787,10.36],[42.777,10.406],[42.751,10.451],[42.737,10.499],[42.717,10.532],[42.706,10.576],[42.708,10.62],[42.723,10.661],[42.742,10.687],[42.769,10.735],[42.797,10.793],[42.898,10.925],[42.934,10.959],[42.944,10.986],[42.918,10.996],[42.853,11.003],[42.761,11.068],[42.702,11.082],[42.656,11.075],[42.611,11.074],[42.58,11.068],[42.536,11.055],[42.513,11.041],[42.475,11.033],[42.44,11.016],[42.405,11.005],[42.334,11.001],[42.239,11.001],[42.187,10.992],[42.079,10.982],[42.035,10.964],[41.905,10.953],[41.817,10.984],[41.77,10.992],[41.764,10.992],[41.761,10.983],[41.74,10.969],[41.719,10.966],[41.7,10.97],[41.682,10.965],[41.635,10.966],[41.583,10.963],[41.485,10.968],[41.411,10.959],[41.393,10.967],[41.349,10.963],[41.301,10.965],[41.269,10.959],[41.242,10.922],[41.234,10.892],[41.233,10.865],[41.221,10.835],[41.208,10.821],[41.192,10.797],[41.167,10.781],[41.15,10.761],[41.134,10.745],[41.116,10.721],[41.091,10.698],[41.078,10.682],[41.08,10.66],[41.079,10.64],[41.083,10.633],[41.088,10.601],[41.072,10.542],[41.062,10.518],[41.058,10.501],[41.048,10.479],[41.033,10.423],[41.031,10.401],[41.016,10.344],[41.006,10.32],[40.991,10.241],[40.98,10.196],[40.976,10.158],[40.955,10.097],[40.95,10.069],[40.937,10.036],[40.947,10.002],[40.954,9.988],[40.967,9.973],[40.982,9.97],[41,9.969],[41.014,9.961],[41.02,9.95],[41.015,9.94],[40.997,9.93],[40.948,9.881],[40.848,9.791],[40.826,9.764],[40.764,9.668],[40.75,9.652],[40.736,9.623],[40.731,9.608],[40.723,9.591],[40.715,9.567],[40.7,9.534],[40.694,9.5],[40.694,9.445]]]}},{"type":"Feature","properties":{"key":"Tigray","slug":"tigray","name":"Tigray"},"geometry":{"type":"Polygon","coordinates":[[[39.985,14.433],[39.972,14.432],[39.959,14.418],[39.939,14.409],[39.896,14.436],[39.881,14.453],[39.863,14.466],[39.848,14.475],[39.832,14.485],[39.821,14.48],[39.808,14.494],[39.793,14.501],[39.786,14.512],[39.769,14.534],[39.751,14.546],[39.716,14.552],[39.7,14.563],[39.681,14.589],[39.667,14.593],[39.639,14.599],[39.624,14.637],[39.592,14.663],[39.556,14.669],[39.538,14.67],[39.517,14.678],[39.504,14.678],[39.489,14.646],[39.491,14.626],[39.479,14.598],[39.495,14.565],[39.494,14.509],[39.474,14.499],[39.469,14.509],[39.463,14.514],[39.453,14.512],[39.436,14.52],[39.429,14.531],[39.399,14.539],[39.37,14.539],[39.369,14.527],[39.366,14.512],[39.37,14.5],[39.366,14.497],[39.341,14.512],[39.324,14.493],[39.315,14.479],[39.317,14.46],[39.319,14.453],[39.321,14.443],[39.299,14.437],[39.302,14.419],[39.294,14.411],[39.277,14.403],[39.251,14.393],[39.241,14.412],[39.225,14.444],[39.22,14.479],[39.209,14.494],[39.229,14.512],[39.233,14.541],[39.241,14.556],[39.239,14.566],[39.227,14.569],[39.222,14.58],[39.209,14.604],[39.179,14.619],[39.126,14.614],[39.105,14.631],[39.088,14.634],[39.076,14.634],[39.062,14.637],[39.049,14.636],[39.03,14.635],[39.015,14.624],[39.014,14.604],[39.002,14.586],[38.982,14.553],[38.968,14.539],[38.955,14.537],[38.938,14.533],[38.906,14.502],[38.849,14.496],[38.825,14.483],[38.816,14.475],[38.795,14.464],[38.76,14.465],[38.731,14.459],[38.704,14.466],[38.676,14.454],[38.666,14.451],[38.655,14.446],[38.64,14.44],[38.617,14.434],[38.595,14.439],[38.573,14.434],[38.556,14.426],[38.544,14.423],[38.522,14.411],[38.507,14.414],[38.485,14.419],[38.473,14.414],[38.448,14.411],[38.444,14.423],[38.433,14.429],[38.402,14.466],[38.399,14.477],[38.389,14.48],[38.37,14.485],[38.357,14.5],[38.35,14.51],[38.341,14.514],[38.337,14.529],[38.316,14.551],[38.316,14.574],[38.309,14.586],[38.293,14.603],[38.272,14.611],[38.267,14.628],[38.265,14.639],[38.257,14.67],[38.244,14.678],[38.229,14.686],[38.211,14.687],[38.188,14.69],[38.181,14.677],[38.163,14.676],[38.151,14.675],[38.14,14.668],[38.133,14.679],[38.121,14.684],[38.11,14.691],[38.096,14.702],[38.087,14.708],[38.065,14.712],[38.041,14.717],[38.019,14.737],[38.022,14.756],[38.017,14.766],[38.004,14.772],[37.995,14.774],[37.993,14.793],[37.975,14.802],[37.972,14.831],[37.951,14.833],[37.945,14.842],[37.924,14.827],[37.876,14.8],[37.833,14.806],[37.783,14.735],[37.776,14.679],[37.774,14.631],[37.742,14.643],[37.711,14.589],[37.699,14.563],[37.673,14.522],[37.658,14.495],[37.577,14.468],[37.56,14.453],[37.526,14.461],[37.49,14.474],[37.458,14.471],[37.441,14.478],[37.404,14.472],[37.378,14.429],[37.346,14.416],[37.338,14.412],[37.315,14.429],[37.309,14.443],[37.291,14.443],[37.259,14.435],[37.249,14.43],[37.228,14.441],[37.201,14.425],[37.181,14.415],[37.165,14.418],[37.142,14.407],[37.13,14.4],[37.115,14.368],[37.109,14.357],[37.101,14.327],[37.104,14.307],[37.102,14.287],[37.095,14.272],[37.072,14.267],[37.058,14.263],[37.044,14.267],[37.034,14.259],[37.009,14.25],[36.991,14.26],[36.982,14.275],[36.97,14.288],[36.957,14.291],[36.938,14.292],[36.916,14.3],[36.895,14.311],[36.864,14.318],[36.841,14.309],[36.828,14.31],[36.809,14.314],[36.766,14.316],[36.747,14.318],[36.729,14.31],[36.692,14.297],[36.652,14.305],[36.63,14.308],[36.619,14.293],[36.585,14.284],[36.565,14.283],[36.557,14.271],[36.563,14.261],[36.544,14.251],[36.464,13.972],[36.452,13.769],[36.468,13.744],[36.485,13.728],[36.479,13.705],[36.478,13.694],[36.495,13.671],[36.505,13.666],[36.511,13.65],[36.527,13.607],[36.532,13.582],[36.541,13.576],[36.561,13.564],[36.559,13.552],[36.567,13.54],[36.573,13.523],[36.599,13.505],[36.597,13.49],[36.575,13.479],[36.574,13.457],[36.567,13.447],[36.577,13.418],[36.589,13.403],[36.603,13.383],[36.61,13.376],[36.637,13.383],[36.65,13.381],[36.665,13.367],[36.686,13.375],[36.716,13.368],[36.732,13.369],[36.746,13.368],[36.763,13.375],[36.771,13.383],[36.784,13.404],[36.803,13.414],[36.813,13.436],[36.826,13.449],[36.845,13.442],[36.855,13.432],[36.872,13.42],[36.882,13.408],[36.905,13.395],[36.91,13.385],[36.92,13.377],[36.93,13.373],[36.947,13.37],[36.958,13.363],[36.965,13.37],[36.977,13.365],[36.998,13.36],[37.014,13.361],[37.036,13.354],[37.053,13.334],[37.07,13.318],[37.079,13.312],[37.1,13.317],[37.128,13.306],[37.159,13.298],[37.176,13.289],[37.206,13.256],[37.215,13.267],[37.241,13.278],[37.247,13.293],[37.257,13.296],[37.277,13.289],[37.314,13.298],[37.336,13.311],[37.345,13.325],[37.353,13.335],[37.356,13.352],[37.366,13.361],[37.397,13.358],[37.41,13.371],[37.42,13.369],[37.432,13.36],[37.441,13.355],[37.463,13.36],[37.477,13.368],[37.491,13.364],[37.504,13.369],[37.519,13.367],[37.533,13.378],[37.558,13.391],[37.568,13.389],[37.591,13.398],[37.612,13.412],[37.626,13.409],[37.657,13.435],[37.663,13.443],[37.678,13.451],[37.684,13.46],[37.695,13.473],[37.696,13.489],[37.701,13.504],[37.71,13.531],[37.715,13.543],[37.725,13.555],[37.737,13.573],[37.747,13.579],[37.761,13.592],[37.766,13.603],[37.77,13.629],[37.776,13.612],[37.785,13.588],[37.77,13.563],[37.793,13.521],[37.813,13.48],[37.867,13.476],[37.888,13.454],[37.947,13.467],[37.969,13.494],[38.009,13.501],[38.022,13.482],[38.031,13.483],[38.046,13.481],[38.06,13.468],[38.072,13.477],[38.116,13.495],[38.125,13.499],[38.131,13.485],[38.146,13.472],[38.159,13.484],[38.189,13.485],[38.212,13.488],[38.228,13.49],[38.249,13.502],[38.26,13.487],[38.28,13.486],[38.324,13.51],[38.327,13.535],[38.329,13.551],[38.35,13.543],[38.366,13.553],[38.386,13.552],[38.4,13.546],[38.407,13.54],[38.427,13.572],[38.442,13.585],[38.444,13.57],[38.454,13.558],[38.466,13.568],[38.474,13.558],[38.491,13.559],[38.533,13.554],[38.555,13.551],[38.543,13.526],[38.523,13.518],[38.504,13.512],[38.492,13.496],[38.468,13.486],[38.47,13.476],[38.485,13.47],[38.535,13.482],[38.563,13.484],[38.574,13.498],[38.591,13.507],[38.615,13.491],[38.637,13.507],[38.673,13.51],[38.674,13.493],[38.662,13.485],[38.634,13.473],[38.619,13.429],[38.633,13.405],[38.67,13.393],[38.707,13.39],[38.723,13.409],[38.734,13.385],[38.731,13.366],[38.743,13.341],[38.738,13.331],[38.742,13.308],[38.74,13.297],[38.736,13.283],[38.732,13.263],[38.78,13.25],[38.802,13.248],[38.835,13.233],[38.851,13.215],[38.868,13.216],[38.894,13.224],[38.919,13.231],[38.953,13.238],[38.957,13.22],[38.966,13.208],[38.998,13.204],[39.037,13.171],[39.043,13.156],[39.027,13.129],[39.011,13.115],[38.991,13.082],[38.995,13.046],[39.005,13.024],[39.001,13.004],[39.015,13.002],[39.045,12.994],[39.075,12.977],[39.101,12.959],[39.143,12.957],[39.156,12.951],[39.176,12.939],[39.204,12.93],[39.233,12.917],[39.26,12.915],[39.28,12.857],[39.304,12.871],[39.311,12.853],[39.279,12.827],[39.304,12.794],[39.277,12.789],[39.28,12.759],[39.275,12.727],[39.286,12.705],[39.267,12.678],[39.232,12.667],[39.2,12.661],[39.182,12.653],[39.184,12.631],[39.205,12.577],[39.21,12.55],[39.218,12.537],[39.224,12.523],[39.231,12.502],[39.232,12.487],[39.237,12.45],[39.243,12.404],[39.245,12.366],[39.246,12.354],[39.264,12.335],[39.286,12.3],[39.306,12.298],[39.335,12.301],[39.351,12.299],[39.389,12.301],[39.42,12.297],[39.442,12.316],[39.471,12.322],[39.524,12.327],[39.544,12.266],[39.573,12.257],[39.598,12.271],[39.615,12.276],[39.622,12.301],[39.66,12.307],[39.707,12.307],[39.74,12.314],[39.762,12.304],[39.801,12.317],[39.818,12.343],[39.83,12.366],[39.824,12.385],[39.822,12.396],[39.822,12.416],[39.848,12.45],[39.883,12.458],[39.872,12.47],[39.882,12.485],[39.864,12.507],[39.865,12.524],[39.853,12.548],[39.834,12.551],[39.828,12.573],[39.808,12.597],[39.82,12.619],[39.833,12.635],[39.821,12.66],[39.84,12.714],[39.871,12.735],[39.9,12.763],[39.928,12.768],[39.964,12.783],[39.973,12.798],[39.966,12.823],[39.942,12.862],[39.93,12.882],[39.917,12.905],[39.905,12.922],[39.887,12.932],[39.863,12.963],[39.863,12.995],[39.864,13.02],[39.849,13.053],[39.834,13.089],[39.825,13.133],[39.813,13.156],[39.805,13.19],[39.809,13.218],[39.8,13.228],[39.786,13.253],[39.778,13.276],[39.763,13.284],[39.743,13.283],[39.731,13.287],[39.721,13.295],[39.736,13.315],[39.737,13.328],[39.743,13.352],[39.741,13.364],[39.73,13.379],[39.742,13.383],[39.739,13.4],[39.729,13.423],[39.72,13.476],[39.729,13.517],[39.735,13.529],[39.74,13.564],[39.764,13.572],[39.795,13.556],[39.817,13.558],[39.844,13.557],[39.865,13.549],[39.866,13.564],[39.866,13.591],[39.87,13.61],[39.867,13.628],[39.868,13.659],[39.879,13.689],[39.875,13.711],[39.877,13.739],[39.875,13.75],[39.854,13.767],[39.853,13.796],[39.842,13.804],[39.835,13.822],[39.842,13.848],[39.839,13.865],[39.829,13.889],[39.834,13.908],[39.827,13.922],[39.829,13.932],[39.813,13.945],[39.814,13.961],[39.83,13.975],[39.86,13.966],[39.87,13.984],[39.887,14.013],[39.867,14.022],[39.856,14.032],[39.845,14.061],[39.844,14.09],[39.844,14.11],[39.839,14.155],[39.81,14.152],[39.792,14.143],[39.768,14.141],[39.722,14.158],[39.683,14.165],[39.659,14.183],[39.657,14.193],[39.665,14.198],[39.677,14.208],[39.689,14.232],[39.707,14.243],[39.754,14.238],[39.757,14.251],[39.743,14.282],[39.728,14.295],[39.734,14.307],[39.751,14.313],[39.772,14.32],[39.781,14.336],[39.773,14.374],[39.797,14.387],[39.821,14.383],[39.839,14.381],[39.856,14.374],[39.879,14.369],[39.891,14.37],[39.902,14.367],[39.917,14.371],[39.951,14.361],[39.981,14.372],[39.989,14.389],[39.98,14.41],[39.985,14.433]]]}}]}